{"type":"FeatureCollection", "features": [
{"type":"Feature","geometry":{"type":"LineString","coordinates":[[80.8062,8.9437],[80.8187,8.9437]]},"properties":{"ord":4}},
{"type":"Feature","geometry":{"type":"LineString","coordinates":[[80.8187,8.9437],[80.8312,8.9479]]},"properties":{"ord":4}},
{"type":"Feature","geometry":{"type":"LineString","coordinates":[[80.8312,8.9479],[80.8437,8.9437],[80.8646,8.9604],[80.9062,9.0021]]},"properties":{"ord":4}},
{"type":"Feature","geometry":{"type":"LineString","coordinates":[[80.7687,8.9354],[80.7729,8.9437],[80.7854,8.9396],[80.8062,8.9437]]},"properties":{"ord":4}},
{"type":"Feature","geometry":{"type":"LineString","coordinates":[[80.7521,8.8896],[80.7604,8.8979],[80.7604,8.9187],[80.7687,8.9354]]},"properties":{"ord":4}},
{"type":"Feature","geometry":{"type":"LineString","coordinates":[[80.7562,8.8646],[80.7521,8.8896]]},"properties":{"ord":4}},
{"type":"Feature","geometry":{"type":"LineString","coordinates":[[80.7437,8.8437],[80.7437,8.8521],[80.7562,8.8646]]},"properties":{"ord":4}},
{"type":"Feature","geometry":{"type":"LineString","coordinates":[[80.7479,8.8229],[80.7437,8.8437]]},"properties":{"ord":4}},
{"type":"Feature","geometry":{"type":"LineString","coordinates":[[81.0062,8.9104],[81.0187,8.9146]]},"properties":{"ord":4}},
{"type":"Feature","geometry":{"type":"LineString","coordinates":[[80.9521,8.8687],[80.9604,8.8812],[81.0062,8.9104]]},"properties":{"ord":4}},
{"type":"Feature","geometry":{"type":"LineString","coordinates":[[80.9396,8.8562],[80.9521,8.8687]]},"properties":{"ord":4}},
{"type":"Feature","geometry":{"type":"LineString","coordinates":[[80.9187,8.8437],[80.9396,8.8562]]},"properties":{"ord":4}},
{"type":"Feature","geometry":{"type":"LineString","coordinates":[[80.9104,8.8271],[80.9187,8.8437]]},"properties":{"ord":4}},
{"type":"Feature","geometry":{"type":"LineString","coordinates":[[80.9104,8.8229],[80.9104,8.8271]]},"properties":{"ord":4}},
{"type":"Feature","geometry":{"type":"LineString","coordinates":[[80.8812,8.7896],[80.9104,8.8229]]},"properties":{"ord":4}},
{"type":"Feature","geometry":{"type":"LineString","coordinates":[[80.8771,8.7771],[80.8812,8.7896]]},"properties":{"ord":4}},
{"type":"Feature","geometry":{"type":"LineString","coordinates":[[80.8771,8.7521],[80.8771,8.7771]]},"properties":{"ord":4}},
{"type":"Feature","geometry":{"type":"LineString","coordinates":[[80.8812,8.7437],[80.8771,8.7521]]},"properties":{"ord":4}},
{"type":"Feature","geometry":{"type":"LineString","coordinates":[[80.8937,8.7104],[80.8812,8.7187],[80.8812,8.7437]]},"properties":{"ord":4}},
{"type":"Feature","geometry":{"type":"LineString","coordinates":[[80.9021,8.6937],[80.8937,8.7104]]},"properties":{"ord":4}},
{"type":"Feature","geometry":{"type":"LineString","coordinates":[[80.9104,8.6854],[80.9021,8.6937]]},"properties":{"ord":4}},
{"type":"Feature","geometry":{"type":"LineString","coordinates":[[80.9021,8.6521],[80.9146,8.6729],[80.9104,8.6854]]},"properties":{"ord":4}},
{"type":"Feature","geometry":{"type":"LineString","coordinates":[[80.8937,8.6396],[80.9021,8.6521]]},"properties":{"ord":4}},
{"type":"Feature","geometry":{"type":"LineString","coordinates":[[80.8812,8.5896],[80.8979,8.6229],[80.8937,8.6396]]},"properties":{"ord":4}},
{"type":"Feature","geometry":{"type":"LineString","coordinates":[[80.8729,8.5812],[80.8812,8.5896]]},"properties":{"ord":4}},
{"type":"Feature","geometry":{"type":"LineString","coordinates":[[80.8729,8.5479],[80.8729,8.5812]]},"properties":{"ord":4}},
{"type":"Feature","geometry":{"type":"LineString","coordinates":[[80.8562,8.5312],[80.8729,8.5479]]},"properties":{"ord":4}},
{"type":"Feature","geometry":{"type":"LineString","coordinates":[[80.8562,8.5229],[80.8562,8.5312]]},"properties":{"ord":4}},
{"type":"Feature","geometry":{"type":"LineString","coordinates":[[79.9687,8.8021],[79.9354,8.7979],[79.9187,8.8062]]},"properties":{"ord":4}},
{"type":"Feature","geometry":{"type":"LineString","coordinates":[[80.0229,8.7979],[80.0021,8.7979]]},"properties":{"ord":4}},
{"type":"Feature","geometry":{"type":"LineString","coordinates":[[79.9771,8.7937],[79.9687,8.8021]]},"properties":{"ord":4}},
{"type":"Feature","geometry":{"type":"LineString","coordinates":[[80.0021,8.7979],[79.9771,8.7937]]},"properties":{"ord":4}},
{"type":"Feature","geometry":{"type":"LineString","coordinates":[[80.0479,8.7896],[80.0312,8.7854],[80.0229,8.7979]]},"properties":{"ord":4}},
{"type":"Feature","geometry":{"type":"LineString","coordinates":[[80.0521,8.7854],[80.0479,8.7896]]},"properties":{"ord":4}},
{"type":"Feature","geometry":{"type":"LineString","coordinates":[[80.0646,8.7854],[80.0521,8.7854]]},"properties":{"ord":4}},
{"type":"Feature","geometry":{"type":"LineString","coordinates":[[80.1021,8.7937],[80.0812,8.7854],[80.0646,8.7854]]},"properties":{"ord":4}},
{"type":"Feature","geometry":{"type":"LineString","coordinates":[[80.1562,8.7604],[80.1479,8.7729],[80.1271,8.7771],[80.1146,8.7896],[80.1021,8.7937]]},"properties":{"ord":4}},
{"type":"Feature","geometry":{"type":"LineString","coordinates":[[80.1771,8.7437],[80.1562,8.7604]]},"properties":{"ord":4}},
{"type":"Feature","geometry":{"type":"LineString","coordinates":[[80.1812,8.7437],[80.1771,8.7437]]},"properties":{"ord":4}},
{"type":"Feature","geometry":{"type":"LineString","coordinates":[[80.1937,8.7312],[80.1812,8.7437]]},"properties":{"ord":4}},
{"type":"Feature","geometry":{"type":"LineString","coordinates":[[80.1979,8.7271],[80.1937,8.7312]]},"properties":{"ord":4}},
{"type":"Feature","geometry":{"type":"LineString","coordinates":[[80.2104,8.7104],[80.1979,8.7271]]},"properties":{"ord":4}},
{"type":"Feature","geometry":{"type":"LineString","coordinates":[[80.2271,8.6896],[80.2104,8.7104]]},"properties":{"ord":4}},
{"type":"Feature","geometry":{"type":"LineString","coordinates":[[80.2354,8.6771],[80.2271,8.6896]]},"properties":{"ord":4}},
{"type":"Feature","geometry":{"type":"LineString","coordinates":[[80.2312,8.6479],[80.2354,8.6771]]},"properties":{"ord":4}},
{"type":"Feature","geometry":{"type":"LineString","coordinates":[[80.2437,8.6187],[80.2354,8.6271],[80.2312,8.6479]]},"properties":{"ord":4}},
{"type":"Feature","geometry":{"type":"LineString","coordinates":[[80.2812,8.5812],[80.2687,8.6104],[80.2521,8.6104],[80.2437,8.6187]]},"properties":{"ord":4}},
{"type":"Feature","geometry":{"type":"LineString","coordinates":[[80.2854,8.5646],[80.2812,8.5812]]},"properties":{"ord":4}},
{"type":"Feature","geometry":{"type":"LineString","coordinates":[[80.3896,8.5229],[80.3771,8.5229],[80.3479,8.5479],[80.3312,8.5437],[80.3146,8.5479],[80.3062,8.5562],[80.2854,8.5646]]},"properties":{"ord":4}},
{"type":"Feature","geometry":{"type":"LineString","coordinates":[[80.4062,8.5146],[80.3896,8.5229]]},"properties":{"ord":4}},
{"type":"Feature","geometry":{"type":"LineString","coordinates":[[80.4229,8.5104],[80.4062,8.5146]]},"properties":{"ord":4}},
{"type":"Feature","geometry":{"type":"LineString","coordinates":[[80.4521,8.4896],[80.4229,8.5104]]},"properties":{"ord":4}},
{"type":"Feature","geometry":{"type":"LineString","coordinates":[[80.4646,8.4937],[80.4521,8.4896]]},"properties":{"ord":4}},
{"type":"Feature","geometry":{"type":"LineString","coordinates":[[80.0312,8.5271],[80.0104,8.5354],[79.9979,8.5479],[79.9646,8.5521],[79.9521,8.5604],[79.9354,8.5562],[79.9229,8.5646]]},"properties":{"ord":4}},
{"type":"Feature","geometry":{"type":"LineString","coordinates":[[80.0604,8.5146],[80.0312,8.5271]]},"properties":{"ord":4}},
{"type":"Feature","geometry":{"type":"LineString","coordinates":[[80.0854,8.4979],[80.0729,8.5104],[80.0604,8.5146]]},"properties":{"ord":4}},
{"type":"Feature","geometry":{"type":"LineString","coordinates":[[80.1062,8.4979],[80.0854,8.4979]]},"properties":{"ord":4}},
{"type":"Feature","geometry":{"type":"LineString","coordinates":[[80.1229,8.5021],[80.1062,8.4979]]},"properties":{"ord":4}},
{"type":"Feature","geometry":{"type":"LineString","coordinates":[[80.1312,8.4979],[80.1229,8.5021]]},"properties":{"ord":4}},
{"type":"Feature","geometry":{"type":"LineString","coordinates":[[81.2521,8.4604],[81.2521,8.4646]]},"properties":{"ord":5}},
{"type":"Feature","geometry":{"type":"LineString","coordinates":[[81.2479,8.4479],[81.2521,8.4604]]},"properties":{"ord":5}},
{"type":"Feature","geometry":{"type":"LineString","coordinates":[[81.2437,8.4271],[81.2396,8.4354],[81.2479,8.4479]]},"properties":{"ord":5}},
{"type":"Feature","geometry":{"type":"LineString","coordinates":[[81.2104,8.4146],[81.2146,8.4229],[81.2312,8.4187],[81.2437,8.4271]]},"properties":{"ord":5}},
{"type":"Feature","geometry":{"type":"LineString","coordinates":[[81.2229,8.3854],[81.2271,8.4021],[81.2104,8.4146]]},"properties":{"ord":5}},
{"type":"Feature","geometry":{"type":"LineString","coordinates":[[81.2187,8.3771],[81.2229,8.3854]]},"properties":{"ord":5}},
{"type":"Feature","geometry":{"type":"LineString","coordinates":[[81.2187,8.3646],[81.2187,8.3771]]},"properties":{"ord":5}},
{"type":"Feature","geometry":{"type":"LineString","coordinates":[[81.1937,8.3437],[81.2187,8.3646]]},"properties":{"ord":5}},
{"type":"Feature","geometry":{"type":"LineString","coordinates":[[81.1854,8.3354],[81.1937,8.3437]]},"properties":{"ord":5}},
{"type":"Feature","geometry":{"type":"LineString","coordinates":[[81.1771,8.3271],[81.1854,8.3354]]},"properties":{"ord":5}},
{"type":"Feature","geometry":{"type":"LineString","coordinates":[[81.1729,8.3229],[81.1771,8.3271]]},"properties":{"ord":5}},
{"type":"Feature","geometry":{"type":"LineString","coordinates":[[81.1687,8.3187],[81.1729,8.3229]]},"properties":{"ord":5}},
{"type":"Feature","geometry":{"type":"LineString","coordinates":[[81.1604,8.2979],[81.1687,8.3187]]},"properties":{"ord":5}},
{"type":"Feature","geometry":{"type":"LineString","coordinates":[[81.1604,8.2604],[81.1562,8.2729],[81.1604,8.2979]]},"properties":{"ord":5}},
{"type":"Feature","geometry":{"type":"LineString","coordinates":[[81.1646,8.2521],[81.1604,8.2604]]},"properties":{"ord":5}},
{"type":"Feature","geometry":{"type":"LineString","coordinates":[[81.1854,8.2312],[81.1854,8.2437],[81.1729,8.2437],[81.1646,8.2521]]},"properties":{"ord":5}},
{"type":"Feature","geometry":{"type":"LineString","coordinates":[[81.1979,8.2187],[81.1854,8.2312]]},"properties":{"ord":5}},
{"type":"Feature","geometry":{"type":"LineString","coordinates":[[81.2104,8.1896],[81.1979,8.2187]]},"properties":{"ord":5}},
{"type":"Feature","geometry":{"type":"LineString","coordinates":[[81.2104,8.1521],[81.2021,8.1604],[81.2104,8.1687],[81.2104,8.1896]]},"properties":{"ord":5}},
{"type":"Feature","geometry":{"type":"LineString","coordinates":[[81.1854,8.1396],[81.1979,8.1521],[81.2104,8.1521]]},"properties":{"ord":5}},
{"type":"Feature","geometry":{"type":"LineString","coordinates":[[81.1396,8.1354],[81.1646,8.1354],[81.1687,8.1312]]},"properties":{"ord":4}},
{"type":"Feature","geometry":{"type":"LineString","coordinates":[[81.1687,8.1312],[81.1854,8.1396]]},"properties":{"ord":4}},
{"type":"Feature","geometry":{"type":"LineString","coordinates":[[81.1229,8.1187],[81.1396,8.1354]]},"properties":{"ord":4}},
{"type":"Feature","geometry":{"type":"LineString","coordinates":[[81.1104,8.1062],[81.1229,8.1187]]},"properties":{"ord":4}},
{"type":"Feature","geometry":{"type":"LineString","coordinates":[[81.0604,8.0979],[81.0687,8.0979]]},"properties":{"ord":4}},
{"type":"Feature","geometry":{"type":"LineString","coordinates":[[81.0687,8.0979],[81.0854,8.1021]]},"properties":{"ord":4}},
{"type":"Feature","geometry":{"type":"LineString","coordinates":[[81.0854,8.1021],[81.0979,8.0979],[81.1104,8.1062]]},"properties":{"ord":4}},
{"type":"Feature","geometry":{"type":"LineString","coordinates":[[81.1729,8.0896],[81.1729,8.1021],[81.1854,8.1146],[81.1854,8.1396]]},"properties":{"ord":5}},
{"type":"Feature","geometry":{"type":"LineString","coordinates":[[81.1437,8.0354],[81.1479,8.0604],[81.1729,8.0896]]},"properties":{"ord":5}},
{"type":"Feature","geometry":{"type":"LineString","coordinates":[[81.1354,7.9937],[81.1354,8.0021],[81.1479,8.0146],[81.1396,8.0271],[81.1437,8.0354]]},"properties":{"ord":5}},
{"type":"Feature","geometry":{"type":"LineString","coordinates":[[81.1312,7.9521],[81.1354,7.9687],[81.1354,7.9937]]},"properties":{"ord":5}},
{"type":"Feature","geometry":{"type":"LineString","coordinates":[[81.1271,7.9479],[81.1312,7.9521]]},"properties":{"ord":5}},
{"type":"Feature","geometry":{"type":"LineString","coordinates":[[81.0937,7.9229],[81.1104,7.9354],[81.1187,7.9479],[81.1271,7.9479]]},"properties":{"ord":5}},
{"type":"Feature","geometry":{"type":"LineString","coordinates":[[81.0896,7.9146],[81.0937,7.9229]]},"properties":{"ord":5}},
{"type":"Feature","geometry":{"type":"LineString","coordinates":[[80.9771,7.8937],[80.9937,7.8896]]},"properties":{"ord":4}},
{"type":"Feature","geometry":{"type":"LineString","coordinates":[[81.0729,7.8896],[81.0896,7.9062],[81.0896,7.9146]]},"properties":{"ord":5}},
{"type":"Feature","geometry":{"type":"LineString","coordinates":[[80.9729,7.8854],[80.9771,7.8937]]},"properties":{"ord":4}},
{"type":"Feature","geometry":{"type":"LineString","coordinates":[[80.9937,7.8896],[81.0104,7.8854]]},"properties":{"ord":4}},
{"type":"Feature","geometry":{"type":"LineString","coordinates":[[80.9646,7.8771],[80.9729,7.8854]]},"properties":{"ord":4}},
{"type":"Feature","geometry":{"type":"LineString","coordinates":[[81.0104,7.8854],[81.0229,7.8854],[81.0312,7.8771],[81.0479,7.8771]]},"properties":{"ord":4}},
{"type":"Feature","geometry":{"type":"LineString","coordinates":[[81.0479,7.8771],[81.0604,7.8687]]},"properties":{"ord":4}},
{"type":"Feature","geometry":{"type":"LineString","coordinates":[[81.0604,7.8687],[81.0729,7.8896]]},"properties":{"ord":5}},
{"type":"Feature","geometry":{"type":"LineString","coordinates":[[80.9271,7.8562],[80.9437,7.8646],[80.9604,7.8646],[80.9646,7.8771]]},"properties":{"ord":4}},
{"type":"Feature","geometry":{"type":"LineString","coordinates":[[81.0604,7.8562],[81.0604,7.8687]]},"properties":{"ord":5}},
{"type":"Feature","geometry":{"type":"LineString","coordinates":[[80.8937,7.8521],[80.8979,7.8521]]},"properties":{"ord":4}},
{"type":"Feature","geometry":{"type":"LineString","coordinates":[[80.8979,7.8521],[80.9271,7.8562]]},"properties":{"ord":4}},
{"type":"Feature","geometry":{"type":"LineString","coordinates":[[80.8771,7.8396],[80.8937,7.8521]]},"properties":{"ord":4}},
{"type":"Feature","geometry":{"type":"LineString","coordinates":[[80.9979,7.8229],[81.0271,7.8521],[81.0312,7.8479],[81.0604,7.8562]]},"properties":{"ord":5}},
{"type":"Feature","geometry":{"type":"LineString","coordinates":[[80.9896,7.8187],[80.9979,7.8229]]},"properties":{"ord":5}},
{"type":"Feature","geometry":{"type":"LineString","coordinates":[[80.9812,7.8104],[80.9896,7.8187]]},"properties":{"ord":5}},
{"type":"Feature","geometry":{"type":"LineString","coordinates":[[80.8729,7.8021],[80.8771,7.8062],[80.8771,7.8396]]},"properties":{"ord":4}},
{"type":"Feature","geometry":{"type":"LineString","coordinates":[[80.9812,7.7854],[80.9812,7.8104]]},"properties":{"ord":5}},
{"type":"Feature","geometry":{"type":"LineString","coordinates":[[80.8521,7.7729],[80.8604,7.7979],[80.8729,7.8021]]},"properties":{"ord":4}},
{"type":"Feature","geometry":{"type":"LineString","coordinates":[[80.8437,7.7437],[80.8521,7.7604],[80.8521,7.7729]]},"properties":{"ord":4}},
{"type":"Feature","geometry":{"type":"LineString","coordinates":[[80.8437,7.7396],[80.8437,7.7437]]},"properties":{"ord":4}},
{"type":"Feature","geometry":{"type":"LineString","coordinates":[[80.8437,7.7354],[80.8437,7.7396]]},"properties":{"ord":4}},
{"type":"Feature","geometry":{"type":"LineString","coordinates":[[80.7937,7.7312],[80.8021,7.7437]]},"properties":{"ord":4}},
{"type":"Feature","geometry":{"type":"LineString","coordinates":[[80.8021,7.7437],[80.8271,7.7312],[80.8396,7.7312]]},"properties":{"ord":4}},
{"type":"Feature","geometry":{"type":"LineString","coordinates":[[80.8396,7.7312],[80.8437,7.7354]]},"properties":{"ord":4}},
{"type":"Feature","geometry":{"type":"LineString","coordinates":[[80.7896,7.7187],[80.7937,7.7312]]},"properties":{"ord":4}},
{"type":"Feature","geometry":{"type":"LineString","coordinates":[[80.9896,7.7187],[80.9854,7.7437],[80.9854,7.7812],[80.9812,7.7854]]},"properties":{"ord":5}},
{"type":"Feature","geometry":{"type":"LineString","coordinates":[[80.7187,7.6896],[80.7229,7.6896]]},"properties":{"ord":4}},
{"type":"Feature","geometry":{"type":"LineString","coordinates":[[80.7146,7.6771],[80.7187,7.6896]]},"properties":{"ord":4}},
{"type":"Feature","geometry":{"type":"LineString","coordinates":[[80.7229,7.6896],[80.7437,7.6771]]},"properties":{"ord":4}},
{"type":"Feature","geometry":{"type":"LineString","coordinates":[[80.7437,7.6771],[80.7604,7.6729]]},"properties":{"ord":4}},
{"type":"Feature","geometry":{"type":"LineString","coordinates":[[80.7604,7.6729],[80.7729,7.7021],[80.7896,7.7187]]},"properties":{"ord":4}},
{"type":"Feature","geometry":{"type":"LineString","coordinates":[[80.9937,7.6729],[80.9896,7.6854],[80.9937,7.6979],[80.9896,7.7187]]},"properties":{"ord":5}},
{"type":"Feature","geometry":{"type":"LineString","coordinates":[[80.7104,7.6646],[80.7146,7.6771]]},"properties":{"ord":4}},
{"type":"Feature","geometry":{"type":"LineString","coordinates":[[80.9979,7.6646],[80.9937,7.6729]]},"properties":{"ord":5}},
{"type":"Feature","geometry":{"type":"LineString","coordinates":[[80.6604,7.6604],[80.6687,7.6646]]},"properties":{"ord":4}},
{"type":"Feature","geometry":{"type":"LineString","coordinates":[[80.9896,7.6521],[80.9979,7.6646]]},"properties":{"ord":5}},
{"type":"Feature","geometry":{"type":"LineString","coordinates":[[80.6687,7.6646],[80.6812,7.6646],[80.6896,7.6479]]},"properties":{"ord":4}},
{"type":"Feature","geometry":{"type":"LineString","coordinates":[[80.6896,7.6479],[80.7021,7.6646],[80.7104,7.6646]]},"properties":{"ord":4}},
{"type":"Feature","geometry":{"type":"LineString","coordinates":[[80.9812,7.6312],[80.9896,7.6521]]},"properties":{"ord":5}},
{"type":"Feature","geometry":{"type":"LineString","coordinates":[[80.6562,7.6271],[80.6646,7.6354],[80.6562,7.6479],[80.6604,7.6604]]},"properties":{"ord":4}},
{"type":"Feature","geometry":{"type":"LineString","coordinates":[[80.9771,7.6104],[80.9812,7.6312]]},"properties":{"ord":5}},
{"type":"Feature","geometry":{"type":"LineString","coordinates":[[80.6646,7.5937],[80.6687,7.6146],[80.6562,7.6271]]},"properties":{"ord":4}},
{"type":"Feature","geometry":{"type":"LineString","coordinates":[[80.6646,7.5896],[80.6646,7.5937]]},"properties":{"ord":4}},
{"type":"Feature","geometry":{"type":"LineString","coordinates":[[80.6562,7.5812],[80.6646,7.5896]]},"properties":{"ord":4}},
{"type":"Feature","geometry":{"type":"LineString","coordinates":[[80.9729,7.5687],[80.9771,7.5854],[80.9771,7.6104]]},"properties":{"ord":5}},
{"type":"Feature","geometry":{"type":"LineString","coordinates":[[80.9729,7.5562],[80.9729,7.5687]]},"properties":{"ord":5}},
{"type":"Feature","geometry":{"type":"LineString","coordinates":[[80.9729,7.5521],[80.9729,7.5562]]},"properties":{"ord":5}},
{"type":"Feature","geometry":{"type":"LineString","coordinates":[[80.9729,7.5229],[80.9729,7.5521]]},"properties":{"ord":5}},
{"type":"Feature","geometry":{"type":"LineString","coordinates":[[80.9729,7.5187],[80.9729,7.5229]]},"properties":{"ord":5}},
{"type":"Feature","geometry":{"type":"LineString","coordinates":[[80.9729,7.5104],[80.9729,7.5187]]},"properties":{"ord":5}},
{"type":"Feature","geometry":{"type":"LineString","coordinates":[[80.9729,7.4896],[80.9729,7.5104]]},"properties":{"ord":5}},
{"type":"Feature","geometry":{"type":"LineString","coordinates":[[80.9729,7.4646],[80.9729,7.4896]]},"properties":{"ord":5}},
{"type":"Feature","geometry":{"type":"LineString","coordinates":[[80.9729,7.4479],[80.9729,7.4646]]},"properties":{"ord":5}},
{"type":"Feature","geometry":{"type":"LineString","coordinates":[[80.9729,7.4229],[80.9729,7.4479]]},"properties":{"ord":5}},
{"type":"Feature","geometry":{"type":"LineString","coordinates":[[80.9687,7.4146],[80.9729,7.4229]]},"properties":{"ord":5}},
{"type":"Feature","geometry":{"type":"LineString","coordinates":[[80.9771,7.4063],[80.9687,7.4146]]},"properties":{"ord":5}},
{"type":"Feature","geometry":{"type":"LineString","coordinates":[[80.9812,7.3812],[80.9771,7.4063]]},"properties":{"ord":5}},
{"type":"Feature","geometry":{"type":"LineString","coordinates":[[80.9771,7.3604],[80.9812,7.3812]]},"properties":{"ord":5}},
{"type":"Feature","geometry":{"type":"LineString","coordinates":[[80.6271,7.3229],[80.6396,7.3271]]},"properties":{"ord":4}},
{"type":"Feature","geometry":{"type":"LineString","coordinates":[[80.6396,7.3271],[80.6479,7.3229]]},"properties":{"ord":4}},
{"type":"Feature","geometry":{"type":"LineString","coordinates":[[80.9937,7.3062],[80.9896,7.3354],[80.9771,7.3604]]},"properties":{"ord":5}},
{"type":"Feature","geometry":{"type":"LineString","coordinates":[[80.9979,7.3021],[80.9937,7.3062]]},"properties":{"ord":5}},
{"type":"Feature","geometry":{"type":"LineString","coordinates":[[80.6104,7.2896],[80.6229,7.3021],[80.6271,7.3229]]},"properties":{"ord":4}},
{"type":"Feature","geometry":{"type":"LineString","coordinates":[[80.6479,7.3229],[80.6562,7.2938],[80.6646,7.2854]]},"properties":{"ord":4}},
{"type":"Feature","geometry":{"type":"LineString","coordinates":[[80.6646,7.2854],[80.6687,7.2812]]},"properties":{"ord":4}},
{"type":"Feature","geometry":{"type":"LineString","coordinates":[[81.0062,7.2771],[80.9979,7.3021]]},"properties":{"ord":5}},
{"type":"Feature","geometry":{"type":"LineString","coordinates":[[80.5979,7.2771],[80.6062,7.2729]]},"properties":{"ord":4}},
{"type":"Feature","geometry":{"type":"LineString","coordinates":[[80.6062,7.2729],[80.6104,7.2896]]},"properties":{"ord":4}},
{"type":"Feature","geometry":{"type":"LineString","coordinates":[[80.6687,7.2812],[80.6896,7.2729]]},"properties":{"ord":4}},
{"type":"Feature","geometry":{"type":"LineString","coordinates":[[80.6896,7.2729],[80.6979,7.2687],[80.7187,7.2687]]},"properties":{"ord":4}},
{"type":"Feature","geometry":{"type":"LineString","coordinates":[[80.5937,7.2562],[80.5979,7.2771]]},"properties":{"ord":4}},
{"type":"Feature","geometry":{"type":"LineString","coordinates":[[81.0104,7.2562],[81.0062,7.2771]]},"properties":{"ord":5}},
{"type":"Feature","geometry":{"type":"LineString","coordinates":[[80.5937,7.2521],[80.5937,7.2562]]},"properties":{"ord":4}},
{"type":"Feature","geometry":{"type":"LineString","coordinates":[[80.7187,7.2687],[80.7479,7.2521]]},"properties":{"ord":4}},
{"type":"Feature","geometry":{"type":"LineString","coordinates":[[80.7479,7.2521],[80.7521,7.2521]]},"properties":{"ord":4}},
{"type":"Feature","geometry":{"type":"LineString","coordinates":[[80.7521,7.2521],[80.7562,7.2729],[80.7812,7.2479]]},"properties":{"ord":4}},
{"type":"Feature","geometry":{"type":"LineString","coordinates":[[81.0187,7.2354],[81.0104,7.2562]]},"properties":{"ord":5}},
{"type":"Feature","geometry":{"type":"LineString","coordinates":[[81.0146,7.2271],[81.0187,7.2354]]},"properties":{"ord":5}},
{"type":"Feature","geometry":{"type":"LineString","coordinates":[[80.6062,7.2187],[80.5937,7.2521]]},"properties":{"ord":4}},
{"type":"Feature","geometry":{"type":"LineString","coordinates":[[80.6062,7.2146],[80.6062,7.2187]]},"properties":{"ord":4}},
{"type":"Feature","geometry":{"type":"LineString","coordinates":[[80.9854,7.2146],[80.9979,7.2146]]},"properties":{"ord":5}},
{"type":"Feature","geometry":{"type":"LineString","coordinates":[[80.9979,7.2146],[81.0062,7.2146],[81.0146,7.2271]]},"properties":{"ord":5}},
{"type":"Feature","geometry":{"type":"LineString","coordinates":[[80.9062,7.2021],[80.9104,7.2021]]},"properties":{"ord":4}},
{"type":"Feature","geometry":{"type":"LineString","coordinates":[[80.9104,7.2021],[80.9146,7.2021]]},"properties":{"ord":4}},
{"type":"Feature","geometry":{"type":"LineString","coordinates":[[80.9146,7.2021],[80.9187,7.2062]]},"properties":{"ord":4}},
{"type":"Feature","geometry":{"type":"LineString","coordinates":[[80.9187,7.2062],[80.9437,7.2021]]},"properties":{"ord":4}},
{"type":"Feature","geometry":{"type":"LineString","coordinates":[[80.6062,7.1979],[80.6062,7.2146]]},"properties":{"ord":4}},
{"type":"Feature","geometry":{"type":"LineString","coordinates":[[80.7812,7.2479],[80.7854,7.2396],[80.8021,7.2271],[80.8021,7.2062],[80.8104,7.1979],[80.8312,7.1979]]},"properties":{"ord":4}},
{"type":"Feature","geometry":{"type":"LineString","coordinates":[[80.8312,7.1979],[80.8396,7.1979]]},"properties":{"ord":4}},
{"type":"Feature","geometry":{"type":"LineString","coordinates":[[80.9437,7.2021],[80.9479,7.1979]]},"properties":{"ord":4}},
{"type":"Feature","geometry":{"type":"LineString","coordinates":[[80.9479,7.1979],[80.9562,7.2021]]},"properties":{"ord":5}},
{"type":"Feature","geometry":{"type":"LineString","coordinates":[[80.9562,7.2021],[80.9729,7.1979],[80.9854,7.2146]]},"properties":{"ord":5}},
{"type":"Feature","geometry":{"type":"LineString","coordinates":[[80.6062,7.1938],[80.6062,7.1979]]},"properties":{"ord":4}},
{"type":"Feature","geometry":{"type":"LineString","coordinates":[[80.8396,7.1979],[80.8479,7.1938]]},"properties":{"ord":4}},
{"type":"Feature","geometry":{"type":"LineString","coordinates":[[80.8937,7.1896],[80.9062,7.2021]]},"properties":{"ord":4}},
{"type":"Feature","geometry":{"type":"LineString","coordinates":[[80.8479,7.1938],[80.8771,7.1938],[80.8937,7.1896]]},"properties":{"ord":4}},
{"type":"Feature","geometry":{"type":"LineString","coordinates":[[80.5979,7.1812],[80.6062,7.1938]]},"properties":{"ord":4}},
{"type":"Feature","geometry":{"type":"LineString","coordinates":[[80.5854,7.1771],[80.5979,7.1812]]},"properties":{"ord":4}},
{"type":"Feature","geometry":{"type":"LineString","coordinates":[[80.5729,7.1604],[80.5854,7.1771]]},"properties":{"ord":4}},
{"type":"Feature","geometry":{"type":"LineString","coordinates":[[80.9521,7.1437],[80.9604,7.1437],[80.9604,7.1646],[80.9437,7.1938],[80.9479,7.1979]]},"properties":{"ord":4}},
{"type":"Feature","geometry":{"type":"LineString","coordinates":[[80.5771,7.1313],[80.5771,7.1562],[80.5729,7.1604]]},"properties":{"ord":4}},
{"type":"Feature","geometry":{"type":"LineString","coordinates":[[80.9521,7.1021],[80.9646,7.1229],[80.9521,7.1313],[80.9521,7.1437]]},"properties":{"ord":4}},
{"type":"Feature","geometry":{"type":"LineString","coordinates":[[80.5604,7.0979],[80.5646,7.0979]]},"properties":{"ord":4}},
{"type":"Feature","geometry":{"type":"LineString","coordinates":[[80.5646,7.0979],[80.5771,7.1146],[80.5771,7.1313]]},"properties":{"ord":4}},
{"type":"Feature","geometry":{"type":"LineString","coordinates":[[80.5562,7.0854],[80.5604,7.0979]]},"properties":{"ord":4}},
{"type":"Feature","geometry":{"type":"LineString","coordinates":[[80.9687,7.0562],[80.9562,7.0688],[80.9646,7.0813],[80.9521,7.0937],[80.9521,7.1021]]},"properties":{"ord":4}},
{"type":"Feature","geometry":{"type":"LineString","coordinates":[[80.9604,7.0271],[80.9604,7.0437],[80.9687,7.0562]]},"properties":{"ord":4}},
{"type":"Feature","geometry":{"type":"LineString","coordinates":[[80.9812,7.0021],[80.9646,7.0146],[80.9604,7.0271]]},"properties":{"ord":4}},
{"type":"Feature","geometry":{"type":"LineString","coordinates":[[80.9854,6.9979],[80.9812,7.0021]]},"properties":{"ord":4}},
{"type":"Feature","geometry":{"type":"LineString","coordinates":[[80.9812,6.9771],[80.9854,6.9979]]},"properties":{"ord":4}},
{"type":"Feature","geometry":{"type":"LineString","coordinates":[[80.9729,6.9646],[80.9812,6.9771]]},"properties":{"ord":4}},
{"type":"Feature","geometry":{"type":"LineString","coordinates":[[80.9604,6.9563],[80.9729,6.9646]]},"properties":{"ord":4}},
{"type":"Feature","geometry":{"type":"LineString","coordinates":[[80.9604,6.9437],[80.9604,6.9563]]},"properties":{"ord":4}},
{"type":"Feature","geometry":{"type":"LineString","coordinates":[[80.9562,6.9146],[80.9521,6.9271],[80.9604,6.9437]]},"properties":{"ord":4}},
{"type":"Feature","geometry":{"type":"LineString","coordinates":[[79.8479,8.2854],[79.8354,8.2979]]},"properties":{"ord":4}},
{"type":"Feature","geometry":{"type":"LineString","coordinates":[[79.8479,8.2729],[79.8479,8.2854]]},"properties":{"ord":4}},
{"type":"Feature","geometry":{"type":"LineString","coordinates":[[79.8729,8.2771],[79.8479,8.2729]]},"properties":{"ord":4}},
{"type":"Feature","geometry":{"type":"LineString","coordinates":[[79.9312,8.2687],[79.9229,8.2812]]},"properties":{"ord":4}},
{"type":"Feature","geometry":{"type":"LineString","coordinates":[[79.8896,8.2646],[79.8729,8.2771]]},"properties":{"ord":4}},
{"type":"Feature","geometry":{"type":"LineString","coordinates":[[79.9229,8.2812],[79.9146,8.2854],[79.8979,8.2771],[79.8896,8.2646]]},"properties":{"ord":4}},
{"type":"Feature","geometry":{"type":"LineString","coordinates":[[79.9479,8.2312],[79.9396,8.2396],[79.9396,8.2521],[79.9312,8.2687]]},"properties":{"ord":4}},
{"type":"Feature","geometry":{"type":"LineString","coordinates":[[79.9604,8.2271],[79.9479,8.2312]]},"properties":{"ord":4}},
{"type":"Feature","geometry":{"type":"LineString","coordinates":[[79.9687,8.2312],[79.9604,8.2271]]},"properties":{"ord":4}},
{"type":"Feature","geometry":{"type":"LineString","coordinates":[[80.0396,8.2354],[80.0271,8.2271]]},"properties":{"ord":4}},
{"type":"Feature","geometry":{"type":"LineString","coordinates":[[80.0062,8.2229],[79.9896,8.2396],[79.9771,8.2396],[79.9687,8.2312]]},"properties":{"ord":4}},
{"type":"Feature","geometry":{"type":"LineString","coordinates":[[80.0271,8.2271],[80.0062,8.2229]]},"properties":{"ord":4}},
{"type":"Feature","geometry":{"type":"LineString","coordinates":[[80.0771,8.2229],[80.0562,8.2187],[80.0396,8.2354]]},"properties":{"ord":4}},
{"type":"Feature","geometry":{"type":"LineString","coordinates":[[80.1104,8.1896],[80.0937,8.2104],[80.0771,8.2229]]},"properties":{"ord":4}},
{"type":"Feature","geometry":{"type":"LineString","coordinates":[[80.1521,8.1771],[80.1437,8.1812],[80.1229,8.1812],[80.1104,8.1896]]},"properties":{"ord":4}},
{"type":"Feature","geometry":{"type":"LineString","coordinates":[[80.2354,8.1396],[80.2146,8.1437],[80.2062,8.1562],[80.1729,8.1604],[80.1521,8.1771]]},"properties":{"ord":4}},
{"type":"Feature","geometry":{"type":"LineString","coordinates":[[80.2521,8.1312],[80.2354,8.1396]]},"properties":{"ord":4}},
{"type":"Feature","geometry":{"type":"LineString","coordinates":[[80.2562,8.1271],[80.2521,8.1312]]},"properties":{"ord":4}},
{"type":"Feature","geometry":{"type":"LineString","coordinates":[[80.2771,8.1146],[80.2562,8.1271]]},"properties":{"ord":4}},
{"type":"Feature","geometry":{"type":"LineString","coordinates":[[80.3146,8.1229],[80.2896,8.1229],[80.2771,8.1146]]},"properties":{"ord":4}},
{"type":"Feature","geometry":{"type":"LineString","coordinates":[[80.3521,8.1104],[80.3396,8.1229],[80.3146,8.1229]]},"properties":{"ord":4}},
{"type":"Feature","geometry":{"type":"LineString","coordinates":[[80.3604,8.1062],[80.3521,8.1104]]},"properties":{"ord":4}},
{"type":"Feature","geometry":{"type":"LineString","coordinates":[[80.4312,8.0812],[80.4187,8.0896],[80.3979,8.0854],[80.3604,8.1062]]},"properties":{"ord":4}},
{"type":"Feature","geometry":{"type":"LineString","coordinates":[[80.4687,8.0687],[80.4562,8.0812],[80.4312,8.0812]]},"properties":{"ord":4}},
{"type":"Feature","geometry":{"type":"LineString","coordinates":[[80.4896,8.0479],[80.4687,8.0687]]},"properties":{"ord":4}},
{"type":"Feature","geometry":{"type":"LineString","coordinates":[[80.5187,8.0187],[80.5062,8.0312],[80.4979,8.0312],[80.4896,8.0479]]},"properties":{"ord":4}},
{"type":"Feature","geometry":{"type":"LineString","coordinates":[[80.5229,8.0146],[80.5187,8.0187]]},"properties":{"ord":4}},
{"type":"Feature","geometry":{"type":"LineString","coordinates":[[80.5354,8.0062],[80.5229,8.0146]]},"properties":{"ord":4}},
{"type":"Feature","geometry":{"type":"LineString","coordinates":[[80.5729,8.0021],[80.5687,8.0062],[80.5354,8.0062]]},"properties":{"ord":4}},
{"type":"Feature","geometry":{"type":"LineString","coordinates":[[80.6062,7.9521],[80.5812,7.9812],[80.5812,7.9937],[80.5729,8.0021]]},"properties":{"ord":4}},
{"type":"Feature","geometry":{"type":"LineString","coordinates":[[80.6104,7.9479],[80.6062,7.9521]]},"properties":{"ord":4}},
{"type":"Feature","geometry":{"type":"LineString","coordinates":[[80.6187,7.9312],[80.6104,7.9479]]},"properties":{"ord":4}},
{"type":"Feature","geometry":{"type":"LineString","coordinates":[[80.6229,7.9146],[80.6187,7.9312]]},"properties":{"ord":4}},
{"type":"Feature","geometry":{"type":"LineString","coordinates":[[81.4187,8.1104],[81.4271,8.1021]]},"properties":{"ord":4}},
{"type":"Feature","geometry":{"type":"LineString","coordinates":[[81.4396,8.1021],[81.4479,8.1187]]},"properties":{"ord":4}},
{"type":"Feature","geometry":{"type":"LineString","coordinates":[[81.4271,8.1021],[81.4396,8.1021]]},"properties":{"ord":4}},
{"type":"Feature","geometry":{"type":"LineString","coordinates":[[79.8979,8.0854],[79.8896,8.0937]]},"properties":{"ord":4}},
{"type":"Feature","geometry":{"type":"LineString","coordinates":[[79.8896,8.0937],[79.8771,8.0937],[79.8687,8.0812]]},"properties":{"ord":4}},
{"type":"Feature","geometry":{"type":"LineString","coordinates":[[79.8687,8.0812],[79.8521,8.0937],[79.8271,8.0937],[79.8146,8.1021]]},"properties":{"ord":4}},
{"type":"Feature","geometry":{"type":"LineString","coordinates":[[81.3562,7.9437],[81.3687,7.9437],[81.3771,7.9521]]},"properties":{"ord":4}},
{"type":"Feature","geometry":{"type":"LineString","coordinates":[[81.3771,7.9521],[81.3896,7.9437]]},"properties":{"ord":4}},
{"type":"Feature","geometry":{"type":"LineString","coordinates":[[81.3354,7.9396],[81.3562,7.9437]]},"properties":{"ord":4}},
{"type":"Feature","geometry":{"type":"LineString","coordinates":[[81.2687,7.9312],[81.2937,7.9437]]},"properties":{"ord":4}},
{"type":"Feature","geometry":{"type":"LineString","coordinates":[[81.2937,7.9437],[81.3062,7.9312]]},"properties":{"ord":4}},
{"type":"Feature","geometry":{"type":"LineString","coordinates":[[81.3062,7.9312],[81.3271,7.9271]]},"properties":{"ord":4}},
{"type":"Feature","geometry":{"type":"LineString","coordinates":[[81.3271,7.9271],[81.3354,7.9396]]},"properties":{"ord":4}},
{"type":"Feature","geometry":{"type":"LineString","coordinates":[[81.2437,7.9229],[81.2687,7.9312]]},"properties":{"ord":4}},
{"type":"Feature","geometry":{"type":"LineString","coordinates":[[81.3896,7.9437],[81.4146,7.9187]]},"properties":{"ord":4}},
{"type":"Feature","geometry":{"type":"LineString","coordinates":[[81.2437,7.9146],[81.2437,7.9229]]},"properties":{"ord":4}},
{"type":"Feature","geometry":{"type":"LineString","coordinates":[[81.4146,7.9187],[81.4187,7.9146]]},"properties":{"ord":4}},
{"type":"Feature","geometry":{"type":"LineString","coordinates":[[81.4187,7.9146],[81.4354,7.9062]]},"properties":{"ord":4}},
{"type":"Feature","geometry":{"type":"LineString","coordinates":[[81.5187,7.9062],[81.5187,7.9187],[81.5312,7.9271]]},"properties":{"ord":4}},
{"type":"Feature","geometry":{"type":"LineString","coordinates":[[81.2354,7.9021],[81.2437,7.9146]]},"properties":{"ord":4}},
{"type":"Feature","geometry":{"type":"LineString","coordinates":[[81.4354,7.9062],[81.4562,7.8979]]},"properties":{"ord":4}},
{"type":"Feature","geometry":{"type":"LineString","coordinates":[[81.2312,7.8937],[81.2354,7.9021]]},"properties":{"ord":4}},
{"type":"Feature","geometry":{"type":"LineString","coordinates":[[81.4562,7.8979],[81.4687,7.8854]]},"properties":{"ord":4}},
{"type":"Feature","geometry":{"type":"LineString","coordinates":[[81.4687,7.8854],[81.4771,7.8646]]},"properties":{"ord":4}},
{"type":"Feature","geometry":{"type":"LineString","coordinates":[[81.5187,7.8646],[81.5187,7.9062]]},"properties":{"ord":4}},
{"type":"Feature","geometry":{"type":"LineString","coordinates":[[81.4771,7.8646],[81.4812,7.8604]]},"properties":{"ord":4}},
{"type":"Feature","geometry":{"type":"LineString","coordinates":[[81.4812,7.8604],[81.4896,7.8687],[81.5187,7.8646]]},"properties":{"ord":4}},
{"type":"Feature","geometry":{"type":"LineString","coordinates":[[81.2271,7.8562],[81.2271,7.8896],[81.2312,7.8937]]},"properties":{"ord":4}},
{"type":"Feature","geometry":{"type":"LineString","coordinates":[[81.2229,7.8104],[81.2271,7.8146],[81.2271,7.8562]]},"properties":{"ord":4}},
{"type":"Feature","geometry":{"type":"LineString","coordinates":[[81.2271,7.8021],[81.2229,7.8104]]},"properties":{"ord":4}},
{"type":"Feature","geometry":{"type":"LineString","coordinates":[[81.2271,7.7937],[81.2271,7.8021]]},"properties":{"ord":4}},
{"type":"Feature","geometry":{"type":"LineString","coordinates":[[81.2271,7.7896],[81.2271,7.7937]]},"properties":{"ord":4}},
{"type":"Feature","geometry":{"type":"LineString","coordinates":[[81.2354,7.7562],[81.2271,7.7771],[81.2271,7.7896]]},"properties":{"ord":4}},
{"type":"Feature","geometry":{"type":"LineString","coordinates":[[81.2396,7.7312],[81.2354,7.7562]]},"properties":{"ord":4}},
{"type":"Feature","geometry":{"type":"LineString","coordinates":[[81.2396,7.7104],[81.2396,7.7312]]},"properties":{"ord":4}},
{"type":"Feature","geometry":{"type":"LineString","coordinates":[[81.2396,7.6813],[81.2396,7.7104]]},"properties":{"ord":4}},
{"type":"Feature","geometry":{"type":"LineString","coordinates":[[81.2146,7.6479],[81.2229,7.6562],[81.2229,7.6729],[81.2396,7.6813]]},"properties":{"ord":4}},
{"type":"Feature","geometry":{"type":"LineString","coordinates":[[81.2021,7.6021],[81.2021,7.6354],[81.2146,7.6479]]},"properties":{"ord":4}},
{"type":"Feature","geometry":{"type":"LineString","coordinates":[[81.5396,7.7646],[81.5771,7.7687],[81.5896,7.7604]]},"properties":{"ord":4}},
{"type":"Feature","geometry":{"type":"LineString","coordinates":[[81.4979,7.7521],[81.5062,7.7521]]},"properties":{"ord":4}},
{"type":"Feature","geometry":{"type":"LineString","coordinates":[[81.5062,7.7521],[81.5271,7.7646],[81.5396,7.7646]]},"properties":{"ord":4}},
{"type":"Feature","geometry":{"type":"LineString","coordinates":[[81.4729,7.7312],[81.4979,7.7521]]},"properties":{"ord":4}},
{"type":"Feature","geometry":{"type":"LineString","coordinates":[[81.4604,7.7271],[81.4729,7.7312]]},"properties":{"ord":4}},
{"type":"Feature","geometry":{"type":"LineString","coordinates":[[81.4562,7.7146],[81.4604,7.7271]]},"properties":{"ord":4}},
{"type":"Feature","geometry":{"type":"LineString","coordinates":[[81.4562,7.6729],[81.4562,7.7146]]},"properties":{"ord":4}},
{"type":"Feature","geometry":{"type":"LineString","coordinates":[[81.4687,7.6562],[81.4687,7.6687],[81.4562,7.6729]]},"properties":{"ord":4}},
{"type":"Feature","geometry":{"type":"LineString","coordinates":[[81.4396,7.6187],[81.4646,7.6396],[81.4687,7.6562]]},"properties":{"ord":4}},
{"type":"Feature","geometry":{"type":"LineString","coordinates":[[81.4021,7.6146],[81.4229,7.6146]]},"properties":{"ord":4}},
{"type":"Feature","geometry":{"type":"LineString","coordinates":[[81.4229,7.6146],[81.4354,7.6146]]},"properties":{"ord":4}},
{"type":"Feature","geometry":{"type":"LineString","coordinates":[[81.4354,7.6146],[81.4396,7.6187]]},"properties":{"ord":4}},
{"type":"Feature","geometry":{"type":"LineString","coordinates":[[81.3896,7.6021],[81.4021,7.6146]]},"properties":{"ord":4}},
{"type":"Feature","geometry":{"type":"LineString","coordinates":[[81.3854,7.5979],[81.3896,7.6021]]},"properties":{"ord":4}},
{"type":"Feature","geometry":{"type":"LineString","coordinates":[[80.2354,7.7396],[80.2229,7.7312]]},"properties":{"ord":5}},
{"type":"Feature","geometry":{"type":"LineString","coordinates":[[80.2146,7.7271],[80.1896,7.7312]]},"properties":{"ord":5}},
{"type":"Feature","geometry":{"type":"LineString","coordinates":[[80.2229,7.7312],[80.2146,7.7271]]},"properties":{"ord":5}},
{"type":"Feature","geometry":{"type":"LineString","coordinates":[[80.2687,7.7271],[80.2479,7.7271],[80.2354,7.7396]]},"properties":{"ord":5}},
{"type":"Feature","geometry":{"type":"LineString","coordinates":[[80.0979,7.7271],[80.0896,7.7312],[80.0771,7.7229],[80.0521,7.7229],[80.0479,7.7271]]},"properties":{"ord":5}},
{"type":"Feature","geometry":{"type":"LineString","coordinates":[[80.1896,7.7312],[80.1729,7.7229],[80.1479,7.7271],[80.1312,7.7187],[80.0979,7.7271]]},"properties":{"ord":5}},
{"type":"Feature","geometry":{"type":"LineString","coordinates":[[80.0479,7.7271],[80.0354,7.7271],[80.0229,7.7146]]},"properties":{"ord":5}},
{"type":"Feature","geometry":{"type":"LineString","coordinates":[[80.2771,7.7146],[80.2687,7.7271]]},"properties":{"ord":5}},
{"type":"Feature","geometry":{"type":"LineString","coordinates":[[80.0229,7.7146],[80.0104,7.7104]]},"properties":{"ord":5}},
{"type":"Feature","geometry":{"type":"LineString","coordinates":[[80.2854,7.7063],[80.2771,7.7146]]},"properties":{"ord":5}},
{"type":"Feature","geometry":{"type":"LineString","coordinates":[[80.3146,7.6979],[80.2854,7.7063]]},"properties":{"ord":4}},
{"type":"Feature","geometry":{"type":"LineString","coordinates":[[80.3312,7.7063],[80.3146,7.6979]]},"properties":{"ord":4}},
{"type":"Feature","geometry":{"type":"LineString","coordinates":[[79.9771,7.6813],[79.9687,7.6813]]},"properties":{"ord":5}},
{"type":"Feature","geometry":{"type":"LineString","coordinates":[[80.0104,7.7104],[79.9979,7.7021],[79.9896,7.7063],[79.9771,7.6813]]},"properties":{"ord":5}},
{"type":"Feature","geometry":{"type":"LineString","coordinates":[[79.9687,7.6813],[79.9521,7.6771]]},"properties":{"ord":5}},
{"type":"Feature","geometry":{"type":"LineString","coordinates":[[79.9521,7.6771],[79.9354,7.6646]]},"properties":{"ord":5}},
{"type":"Feature","geometry":{"type":"LineString","coordinates":[[79.9354,7.6646],[79.9187,7.6312]]},"properties":{"ord":5}},
{"type":"Feature","geometry":{"type":"LineString","coordinates":[[80.3521,7.6229],[80.3396,7.6354],[80.3187,7.6479],[80.3187,7.6604],[80.3104,7.6729],[80.2896,7.6937],[80.2854,7.7063]]},"properties":{"ord":4}},
{"type":"Feature","geometry":{"type":"LineString","coordinates":[[79.8729,7.6187],[79.8604,7.6187]]},"properties":{"ord":5}},
{"type":"Feature","geometry":{"type":"LineString","coordinates":[[79.8937,7.6229],[79.8729,7.6187]]},"properties":{"ord":5}},
{"type":"Feature","geometry":{"type":"LineString","coordinates":[[79.9062,7.6187],[79.8937,7.6229]]},"properties":{"ord":5}},
{"type":"Feature","geometry":{"type":"LineString","coordinates":[[79.9187,7.6312],[79.9062,7.6187]]},"properties":{"ord":5}},
{"type":"Feature","geometry":{"type":"LineString","coordinates":[[80.3479,7.6187],[80.3521,7.6229]]},"properties":{"ord":4}},
{"type":"Feature","geometry":{"type":"LineString","coordinates":[[79.8021,7.5937],[79.7854,7.5979]]},"properties":{"ord":5}},
{"type":"Feature","geometry":{"type":"LineString","coordinates":[[79.8604,7.6187],[79.8437,7.6104],[79.8229,7.6104],[79.8146,7.5937],[79.8021,7.5937]]},"properties":{"ord":5}},
{"type":"Feature","geometry":{"type":"LineString","coordinates":[[80.3687,7.5896],[80.3479,7.6187]]},"properties":{"ord":4}},
{"type":"Feature","geometry":{"type":"LineString","coordinates":[[79.8062,7.5771],[79.8021,7.5937]]},"properties":{"ord":4}},
{"type":"Feature","geometry":{"type":"LineString","coordinates":[[80.4062,7.5521],[80.3979,7.5687],[80.3854,7.5812],[80.3687,7.5896]]},"properties":{"ord":4}},
{"type":"Feature","geometry":{"type":"LineString","coordinates":[[80.4104,7.5479],[80.4062,7.5521]]},"properties":{"ord":4}},
{"type":"Feature","geometry":{"type":"LineString","coordinates":[[80.4146,7.5396],[80.4104,7.5479]]},"properties":{"ord":4}},
{"type":"Feature","geometry":{"type":"LineString","coordinates":[[80.4312,7.5271],[80.4146,7.5396]]},"properties":{"ord":4}},
{"type":"Feature","geometry":{"type":"LineString","coordinates":[[79.8187,7.5229],[79.8187,7.5396],[79.8104,7.5479],[79.8062,7.5771]]},"properties":{"ord":4}},
{"type":"Feature","geometry":{"type":"LineString","coordinates":[[80.4354,7.5187],[80.4312,7.5271]]},"properties":{"ord":4}},
{"type":"Feature","geometry":{"type":"LineString","coordinates":[[79.8187,7.5146],[79.8187,7.5229]]},"properties":{"ord":4}},
{"type":"Feature","geometry":{"type":"LineString","coordinates":[[80.4437,7.5104],[80.4354,7.5187]]},"properties":{"ord":4}},
{"type":"Feature","geometry":{"type":"LineString","coordinates":[[79.9687,7.5062],[79.9562,7.4979],[79.9312,7.4979]]},"properties":{"ord":4}},
{"type":"Feature","geometry":{"type":"LineString","coordinates":[[79.9312,7.4979],[79.9062,7.4771],[79.8854,7.4729]]},"properties":{"ord":4}},
{"type":"Feature","geometry":{"type":"LineString","coordinates":[[79.8229,7.4687],[79.8146,7.4896],[79.8187,7.5146]]},"properties":{"ord":4}},
{"type":"Feature","geometry":{"type":"LineString","coordinates":[[79.8854,7.4729],[79.8771,7.4687]]},"properties":{"ord":4}},
{"type":"Feature","geometry":{"type":"LineString","coordinates":[[79.8771,7.4687],[79.8521,7.4729],[79.8396,7.4646],[79.8229,7.4687]]},"properties":{"ord":4}},
{"type":"Feature","geometry":{"type":"LineString","coordinates":[[81.7312,7.4937],[81.7521,7.5021]]},"properties":{"ord":4}},
{"type":"Feature","geometry":{"type":"LineString","coordinates":[[81.7187,7.4646],[81.7312,7.4729],[81.7312,7.4937]]},"properties":{"ord":4}},
{"type":"Feature","geometry":{"type":"LineString","coordinates":[[81.8021,7.2896],[81.8229,7.2896],[81.8354,7.2812]]},"properties":{"ord":4}},
{"type":"Feature","geometry":{"type":"LineString","coordinates":[[81.8354,7.2812],[81.8479,7.2896],[81.8646,7.2812]]},"properties":{"ord":4}},
{"type":"Feature","geometry":{"type":"LineString","coordinates":[[81.8646,7.2812],[81.8687,7.2812]]},"properties":{"ord":4}},
{"type":"Feature","geometry":{"type":"LineString","coordinates":[[81.7729,7.2854],[81.7854,7.2771],[81.8021,7.2896]]},"properties":{"ord":4}},
{"type":"Feature","geometry":{"type":"LineString","coordinates":[[81.7354,7.2729],[81.7521,7.2854],[81.7729,7.2854]]},"properties":{"ord":4}},
{"type":"Feature","geometry":{"type":"LineString","coordinates":[[81.6562,7.2687],[81.6687,7.2687]]},"properties":{"ord":4}},
{"type":"Feature","geometry":{"type":"LineString","coordinates":[[81.6687,7.2687],[81.6854,7.2771],[81.7146,7.2687]]},"properties":{"ord":4}},
{"type":"Feature","geometry":{"type":"LineString","coordinates":[[81.7146,7.2687],[81.7354,7.2729]]},"properties":{"ord":4}},
{"type":"Feature","geometry":{"type":"LineString","coordinates":[[81.6229,7.2396],[81.6354,7.2437],[81.6396,7.2562],[81.6562,7.2687]]},"properties":{"ord":4}},
{"type":"Feature","geometry":{"type":"LineString","coordinates":[[81.6104,7.2271],[81.6229,7.2396]]},"properties":{"ord":4}},
{"type":"Feature","geometry":{"type":"LineString","coordinates":[[81.6021,7.2229],[81.6104,7.2271]]},"properties":{"ord":4}},
{"type":"Feature","geometry":{"type":"LineString","coordinates":[[81.5521,7.2187],[81.5687,7.2229],[81.6021,7.2229]]},"properties":{"ord":4}},
{"type":"Feature","geometry":{"type":"LineString","coordinates":[[81.4937,7.2021],[81.5062,7.2021]]},"properties":{"ord":4}},
{"type":"Feature","geometry":{"type":"LineString","coordinates":[[81.5062,7.2021],[81.5229,7.2021]]},"properties":{"ord":4}},
{"type":"Feature","geometry":{"type":"LineString","coordinates":[[81.5229,7.2021],[81.5521,7.2187]]},"properties":{"ord":4}},
{"type":"Feature","geometry":{"type":"LineString","coordinates":[[81.4646,7.1979],[81.4937,7.2021]]},"properties":{"ord":4}},
{"type":"Feature","geometry":{"type":"LineString","coordinates":[[81.4437,7.1938],[81.4646,7.1979]]},"properties":{"ord":4}},
{"type":"Feature","geometry":{"type":"LineString","coordinates":[[81.4062,7.1812],[81.4187,7.1938],[81.4437,7.1938]]},"properties":{"ord":4}},
{"type":"Feature","geometry":{"type":"LineString","coordinates":[[81.3437,7.1771],[81.3479,7.1896],[81.3646,7.1979]]},"properties":{"ord":4}},
{"type":"Feature","geometry":{"type":"LineString","coordinates":[[81.3646,7.1979],[81.3687,7.1896],[81.3896,7.1771]]},"properties":{"ord":4}},
{"type":"Feature","geometry":{"type":"LineString","coordinates":[[81.3896,7.1771],[81.3979,7.1771]]},"properties":{"ord":4}},
{"type":"Feature","geometry":{"type":"LineString","coordinates":[[81.3979,7.1771],[81.4062,7.1812]]},"properties":{"ord":4}},
{"type":"Feature","geometry":{"type":"LineString","coordinates":[[81.3312,7.1521],[81.3396,7.1604],[81.3437,7.1771]]},"properties":{"ord":4}},
{"type":"Feature","geometry":{"type":"LineString","coordinates":[[81.2729,7.1437],[81.2979,7.1437],[81.3312,7.1521]]},"properties":{"ord":4}},
{"type":"Feature","geometry":{"type":"LineString","coordinates":[[80.0271,7.3188],[80.0062,7.3188]]},"properties":{"ord":4}},
{"type":"Feature","geometry":{"type":"LineString","coordinates":[[80.3187,7.3229],[80.3062,7.3188]]},"properties":{"ord":4}},
{"type":"Feature","geometry":{"type":"LineString","coordinates":[[80.3646,7.3188],[80.3604,7.3188]]},"properties":{"ord":4}},
{"type":"Feature","geometry":{"type":"LineString","coordinates":[[80.3729,7.3188],[80.3646,7.3188]]},"properties":{"ord":4}},
{"type":"Feature","geometry":{"type":"LineString","coordinates":[[80.0062,7.3188],[79.9979,7.3146]]},"properties":{"ord":4}},
{"type":"Feature","geometry":{"type":"LineString","coordinates":[[80.1479,7.3146],[80.1354,7.3271],[80.1271,7.3271]]},"properties":{"ord":4}},
{"type":"Feature","geometry":{"type":"LineString","coordinates":[[80.3062,7.3188],[80.2937,7.3146],[80.2812,7.3188]]},"properties":{"ord":4}},
{"type":"Feature","geometry":{"type":"LineString","coordinates":[[80.3604,7.3188],[80.3521,7.3146],[80.3396,7.3229],[80.3187,7.3229]]},"properties":{"ord":4}},
{"type":"Feature","geometry":{"type":"LineString","coordinates":[[80.1271,7.3271],[80.1104,7.3229],[80.0979,7.3104]]},"properties":{"ord":4}},
{"type":"Feature","geometry":{"type":"LineString","coordinates":[[80.2812,7.3188],[80.2646,7.3104]]},"properties":{"ord":4}},
{"type":"Feature","geometry":{"type":"LineString","coordinates":[[80.0312,7.3062],[80.0271,7.3188]]},"properties":{"ord":4}},
{"type":"Feature","geometry":{"type":"LineString","coordinates":[[80.0979,7.3104],[80.0812,7.3021]]},"properties":{"ord":4}},
{"type":"Feature","geometry":{"type":"LineString","coordinates":[[80.1479,7.3021],[80.1479,7.3146]]},"properties":{"ord":4}},
{"type":"Feature","geometry":{"type":"LineString","coordinates":[[79.9729,7.2938],[79.9604,7.2938]]},"properties":{"ord":4}},
{"type":"Feature","geometry":{"type":"LineString","coordinates":[[79.9979,7.3146],[79.9729,7.2938]]},"properties":{"ord":4}},
{"type":"Feature","geometry":{"type":"LineString","coordinates":[[80.2646,7.3104],[80.2396,7.2938]]},"properties":{"ord":4}},
{"type":"Feature","geometry":{"type":"LineString","coordinates":[[80.0604,7.2854],[80.0479,7.2979],[80.0312,7.3062]]},"properties":{"ord":4}},
{"type":"Feature","geometry":{"type":"LineString","coordinates":[[80.0812,7.3021],[80.0604,7.2854]]},"properties":{"ord":4}},
{"type":"Feature","geometry":{"type":"LineString","coordinates":[[79.9604,7.2938],[79.9521,7.2812]]},"properties":{"ord":4}},
{"type":"Feature","geometry":{"type":"LineString","coordinates":[[80.1687,7.2812],[80.1479,7.3021]]},"properties":{"ord":4}},
{"type":"Feature","geometry":{"type":"LineString","coordinates":[[79.9312,7.2812],[79.9229,7.2771]]},"properties":{"ord":4}},
{"type":"Feature","geometry":{"type":"LineString","coordinates":[[79.9521,7.2812],[79.9312,7.2812]]},"properties":{"ord":4}},
{"type":"Feature","geometry":{"type":"LineString","coordinates":[[79.9104,7.2729],[79.9021,7.2771]]},"properties":{"ord":4}},
{"type":"Feature","geometry":{"type":"LineString","coordinates":[[79.9229,7.2771],[79.9104,7.2729]]},"properties":{"ord":4}},
{"type":"Feature","geometry":{"type":"LineString","coordinates":[[79.8562,7.2687],[79.8437,7.2729]]},"properties":{"ord":4}},
{"type":"Feature","geometry":{"type":"LineString","coordinates":[[79.9021,7.2771],[79.8896,7.2729],[79.8729,7.2812],[79.8562,7.2687]]},"properties":{"ord":4}},
{"type":"Feature","geometry":{"type":"LineString","coordinates":[[80.2396,7.2938],[80.2104,7.2687]]},"properties":{"ord":4}},
{"type":"Feature","geometry":{"type":"LineString","coordinates":[[80.1854,7.2646],[80.1687,7.2812]]},"properties":{"ord":4}},
{"type":"Feature","geometry":{"type":"LineString","coordinates":[[80.2104,7.2687],[80.2062,7.2646]]},"properties":{"ord":4}},
{"type":"Feature","geometry":{"type":"LineString","coordinates":[[80.2062,7.2646],[80.1854,7.2646]]},"properties":{"ord":4}},
{"type":"Feature","geometry":{"type":"LineString","coordinates":[[79.8479,7.1854],[79.8312,7.1979],[79.8271,7.2104]]},"properties":{"ord":4}},
{"type":"Feature","geometry":{"type":"LineString","coordinates":[[79.8604,7.1771],[79.8479,7.1854]]},"properties":{"ord":4}},
{"type":"Feature","geometry":{"type":"LineString","coordinates":[[79.9229,7.1187],[79.9187,7.1437],[79.9062,7.1479],[79.8937,7.1604]]},"properties":{"ord":4}},
{"type":"Feature","geometry":{"type":"LineString","coordinates":[[79.8937,7.1604],[79.8896,7.1354],[79.8937,7.1313],[79.8771,7.1146],[79.8687,7.1229],[79.8687,7.1479],[79.8646,7.1521],[79.8604,7.1771]]},"properties":{"ord":4}},
{"type":"Feature","geometry":{"type":"LineString","coordinates":[[79.9187,7.1104],[79.9229,7.1187]]},"properties":{"ord":4}},
{"type":"Feature","geometry":{"type":"LineString","coordinates":[[79.9187,7.0979],[79.9187,7.1104]]},"properties":{"ord":4}},
{"type":"Feature","geometry":{"type":"LineString","coordinates":[[79.9437,7.0896],[79.9271,7.1021],[79.9187,7.0979]]},"properties":{"ord":4}},
{"type":"Feature","geometry":{"type":"LineString","coordinates":[[79.9729,7.0896],[79.9521,7.0854],[79.9437,7.0896]]},"properties":{"ord":4}},
{"type":"Feature","geometry":{"type":"LineString","coordinates":[[80.2687,7.0729],[80.2562,7.0521]]},"properties":{"ord":4}},
{"type":"Feature","geometry":{"type":"LineString","coordinates":[[80.2562,7.0521],[80.2521,7.0396]]},"properties":{"ord":4}},
{"type":"Feature","geometry":{"type":"LineString","coordinates":[[80.2521,7.0396],[80.2479,7.0354]]},"properties":{"ord":5}},
{"type":"Feature","geometry":{"type":"LineString","coordinates":[[80.2479,7.0354],[80.2312,7.0187]]},"properties":{"ord":5}},
{"type":"Feature","geometry":{"type":"LineString","coordinates":[[80.2646,7.0187],[80.2521,7.0396]]},"properties":{"ord":4}},
{"type":"Feature","geometry":{"type":"LineString","coordinates":[[80.2937,7.0271],[80.2854,7.0312],[80.2646,7.0187]]},"properties":{"ord":4}},
{"type":"Feature","geometry":{"type":"LineString","coordinates":[[80.2312,7.0187],[80.2271,7.0104]]},"properties":{"ord":5}},
{"type":"Feature","geometry":{"type":"LineString","coordinates":[[80.3187,7.0104],[80.3062,7.0104],[80.2937,7.0271]]},"properties":{"ord":4}},
{"type":"Feature","geometry":{"type":"LineString","coordinates":[[80.2271,7.0104],[80.2229,6.9979]]},"properties":{"ord":5}},
{"type":"Feature","geometry":{"type":"LineString","coordinates":[[80.3229,6.9979],[80.3187,7.0104]]},"properties":{"ord":4}},
{"type":"Feature","geometry":{"type":"LineString","coordinates":[[80.3687,6.9979],[80.3521,6.9979]]},"properties":{"ord":4}},
{"type":"Feature","geometry":{"type":"LineString","coordinates":[[80.3896,6.9979],[80.3687,6.9979]]},"properties":{"ord":4}},
{"type":"Feature","geometry":{"type":"LineString","coordinates":[[80.2229,6.9979],[80.2187,6.9937]]},"properties":{"ord":5}},
{"type":"Feature","geometry":{"type":"LineString","coordinates":[[80.3521,6.9979],[80.3229,6.9979]]},"properties":{"ord":4}},
{"type":"Feature","geometry":{"type":"LineString","coordinates":[[80.4062,6.9937],[80.3896,6.9979]]},"properties":{"ord":4}},
{"type":"Feature","geometry":{"type":"LineString","coordinates":[[80.4104,6.9979],[80.4062,6.9937]]},"properties":{"ord":4}},
{"type":"Feature","geometry":{"type":"LineString","coordinates":[[80.2187,6.9937],[80.2062,6.9854]]},"properties":{"ord":5}},
{"type":"Feature","geometry":{"type":"LineString","coordinates":[[80.4271,6.9854],[80.4104,6.9979]]},"properties":{"ord":4}},
{"type":"Feature","geometry":{"type":"LineString","coordinates":[[79.8812,6.9812],[79.8687,6.9812]]},"properties":{"ord":5}},
{"type":"Feature","geometry":{"type":"LineString","coordinates":[[80.2062,6.9854],[80.2021,6.9812]]},"properties":{"ord":5}},
{"type":"Feature","geometry":{"type":"LineString","coordinates":[[80.4521,6.9812],[80.4396,6.9896],[80.4271,6.9854]]},"properties":{"ord":4}},
{"type":"Feature","geometry":{"type":"LineString","coordinates":[[80.1354,6.9771],[80.1271,6.9771]]},"properties":{"ord":5}},
{"type":"Feature","geometry":{"type":"LineString","coordinates":[[80.1771,6.9771],[80.1729,6.9812]]},"properties":{"ord":5}},
{"type":"Feature","geometry":{"type":"LineString","coordinates":[[80.1979,6.9771],[80.1771,6.9771]]},"properties":{"ord":5}},
{"type":"Feature","geometry":{"type":"LineString","coordinates":[[80.2021,6.9812],[80.1979,6.9771]]},"properties":{"ord":5}},
{"type":"Feature","geometry":{"type":"LineString","coordinates":[[79.8854,6.9729],[79.8812,6.9812]]},"properties":{"ord":5}},
{"type":"Feature","geometry":{"type":"LineString","coordinates":[[80.1729,6.9812],[80.1646,6.9729],[80.1437,6.9729],[80.1354,6.9771]]},"properties":{"ord":5}},
{"type":"Feature","geometry":{"type":"LineString","coordinates":[[79.8812,6.9646],[79.8854,6.9729]]},"properties":{"ord":5}},
{"type":"Feature","geometry":{"type":"LineString","coordinates":[[80.1271,6.9771],[80.1187,6.9646],[80.1062,6.9604]]},"properties":{"ord":5}},
{"type":"Feature","geometry":{"type":"LineString","coordinates":[[80.1062,6.9604],[80.0979,6.9479]]},"properties":{"ord":5}},
{"type":"Feature","geometry":{"type":"LineString","coordinates":[[79.9229,6.9437],[79.9104,6.9437],[79.8979,6.9604],[79.8812,6.9646]]},"properties":{"ord":5}},
{"type":"Feature","geometry":{"type":"LineString","coordinates":[[80.0979,6.9479],[80.0937,6.9396]]},"properties":{"ord":5}},
{"type":"Feature","geometry":{"type":"LineString","coordinates":[[79.9437,6.9354],[79.9312,6.9354],[79.9229,6.9437]]},"properties":{"ord":5}},
{"type":"Feature","geometry":{"type":"LineString","coordinates":[[79.9604,6.9396],[79.9437,6.9354]]},"properties":{"ord":5}},
{"type":"Feature","geometry":{"type":"LineString","coordinates":[[79.9854,6.9354],[79.9604,6.9396]]},"properties":{"ord":5}},
{"type":"Feature","geometry":{"type":"LineString","coordinates":[[80.0187,6.9437],[79.9937,6.9437],[79.9854,6.9354]]},"properties":{"ord":5}},
{"type":"Feature","geometry":{"type":"LineString","coordinates":[[80.0937,6.9396],[80.0937,6.9271]]},"properties":{"ord":5}},
{"type":"Feature","geometry":{"type":"LineString","coordinates":[[80.0229,6.9229],[80.0187,6.9437]]},"properties":{"ord":5}},
{"type":"Feature","geometry":{"type":"LineString","coordinates":[[80.0937,6.9271],[80.0937,6.9229]]},"properties":{"ord":5}},
{"type":"Feature","geometry":{"type":"LineString","coordinates":[[80.0396,6.9146],[80.0229,6.9229]]},"properties":{"ord":5}},
{"type":"Feature","geometry":{"type":"LineString","coordinates":[[80.0604,6.9104],[80.0396,6.9146]]},"properties":{"ord":5}},
{"type":"Feature","geometry":{"type":"LineString","coordinates":[[80.0771,6.9104],[80.0604,6.9104]]},"properties":{"ord":5}},
{"type":"Feature","geometry":{"type":"LineString","coordinates":[[80.0937,6.9229],[80.0771,6.9104]]},"properties":{"ord":5}},
{"type":"Feature","geometry":{"type":"LineString","coordinates":[[81.6937,6.7646],[81.7062,6.7604]]},"properties":{"ord":4}},
{"type":"Feature","geometry":{"type":"LineString","coordinates":[[81.7062,6.7604],[81.7229,6.7604]]},"properties":{"ord":4}},
{"type":"Feature","geometry":{"type":"LineString","coordinates":[[81.7604,6.7646],[81.7812,6.7729],[81.7937,6.7604],[81.8104,6.7688],[81.8229,6.7688]]},"properties":{"ord":4}},
{"type":"Feature","geometry":{"type":"LineString","coordinates":[[81.7229,6.7604],[81.7312,6.7646],[81.7479,6.7521],[81.7604,6.7646]]},"properties":{"ord":4}},
{"type":"Feature","geometry":{"type":"LineString","coordinates":[[79.9021,6.7646],[79.8896,6.7521]]},"properties":{"ord":4}},
{"type":"Feature","geometry":{"type":"LineString","coordinates":[[80.1687,6.7396],[80.1396,6.7354]]},"properties":{"ord":5}},
{"type":"Feature","geometry":{"type":"LineString","coordinates":[[80.2187,6.7312],[80.2146,6.7312]]},"properties":{"ord":5}},
{"type":"Feature","geometry":{"type":"LineString","coordinates":[[80.2271,6.7354],[80.2187,6.7312]]},"properties":{"ord":5}},
{"type":"Feature","geometry":{"type":"LineString","coordinates":[[80.2562,6.7312],[80.2271,6.7354]]},"properties":{"ord":5}},
{"type":"Feature","geometry":{"type":"LineString","coordinates":[[80.2646,6.7312],[80.2562,6.7312]]},"properties":{"ord":5}},
{"type":"Feature","geometry":{"type":"LineString","coordinates":[[80.2146,6.7312],[80.1979,6.7271]]},"properties":{"ord":5}},
{"type":"Feature","geometry":{"type":"LineString","coordinates":[[80.2854,6.7271],[80.2646,6.7312]]},"properties":{"ord":5}},
{"type":"Feature","geometry":{"type":"LineString","coordinates":[[80.2937,6.7271],[80.2854,6.7271]]},"properties":{"ord":5}},
{"type":"Feature","geometry":{"type":"LineString","coordinates":[[80.2896,6.7396],[80.2937,6.7271]]},"properties":{"ord":4}},
{"type":"Feature","geometry":{"type":"LineString","coordinates":[[80.1771,6.7229],[80.1687,6.7271],[80.1687,6.7396]]},"properties":{"ord":5}},
{"type":"Feature","geometry":{"type":"LineString","coordinates":[[80.1979,6.7271],[80.1771,6.7229]]},"properties":{"ord":5}},
{"type":"Feature","geometry":{"type":"LineString","coordinates":[[80.3187,6.7229],[80.2937,6.7271]]},"properties":{"ord":4}},
{"type":"Feature","geometry":{"type":"LineString","coordinates":[[80.1396,6.7354],[80.1396,6.7188]]},"properties":{"ord":5}},
{"type":"Feature","geometry":{"type":"LineString","coordinates":[[80.3312,6.7146],[80.3187,6.7229]]},"properties":{"ord":4}},
{"type":"Feature","geometry":{"type":"LineString","coordinates":[[80.1396,6.7188],[80.1354,6.7104]]},"properties":{"ord":5}},
{"type":"Feature","geometry":{"type":"LineString","coordinates":[[80.1229,6.7062],[80.1146,6.7062]]},"properties":{"ord":5}},
{"type":"Feature","geometry":{"type":"LineString","coordinates":[[80.1354,6.7104],[80.1229,6.7062]]},"properties":{"ord":5}},
{"type":"Feature","geometry":{"type":"LineString","coordinates":[[80.3521,6.6979],[80.3312,6.7146]]},"properties":{"ord":4}},
{"type":"Feature","geometry":{"type":"LineString","coordinates":[[80.3687,6.7104],[80.3604,6.6979],[80.3521,6.6979]]},"properties":{"ord":4}},
{"type":"Feature","geometry":{"type":"LineString","coordinates":[[80.4396,6.7062],[80.4229,6.6896],[80.4062,6.6937]]},"properties":{"ord":4}},
{"type":"Feature","geometry":{"type":"LineString","coordinates":[[80.3937,6.6812],[80.3687,6.7104]]},"properties":{"ord":4}},
{"type":"Feature","geometry":{"type":"LineString","coordinates":[[80.4062,6.6937],[80.3937,6.6812]]},"properties":{"ord":4}},
{"type":"Feature","geometry":{"type":"LineString","coordinates":[[80.1146,6.7062],[80.0979,6.6896],[80.0979,6.6771]]},"properties":{"ord":5}},
{"type":"Feature","geometry":{"type":"LineString","coordinates":[[80.0979,6.6771],[80.0979,6.6646]]},"properties":{"ord":5}},
{"type":"Feature","geometry":{"type":"LineString","coordinates":[[80.1104,6.6521],[80.0979,6.6646]]},"properties":{"ord":4}},
{"type":"Feature","geometry":{"type":"LineString","coordinates":[[80.0979,6.6646],[80.0854,6.6479],[80.0729,6.6437]]},"properties":{"ord":5}},
{"type":"Feature","geometry":{"type":"LineString","coordinates":[[80.0729,6.6437],[80.0687,6.6396]]},"properties":{"ord":5}},
{"type":"Feature","geometry":{"type":"LineString","coordinates":[[80.1479,6.6396],[80.1437,6.6396]]},"properties":{"ord":4}},
{"type":"Feature","geometry":{"type":"LineString","coordinates":[[79.9854,6.6771],[79.9812,6.6646],[79.9896,6.6521],[79.9896,6.6354]]},"properties":{"ord":4}},
{"type":"Feature","geometry":{"type":"LineString","coordinates":[[80.1562,6.6354],[80.1479,6.6396]]},"properties":{"ord":4}},
{"type":"Feature","geometry":{"type":"LineString","coordinates":[[80.0312,6.6312],[80.0187,6.6312]]},"properties":{"ord":5}},
{"type":"Feature","geometry":{"type":"LineString","coordinates":[[80.0687,6.6396],[80.0646,6.6312]]},"properties":{"ord":5}},
{"type":"Feature","geometry":{"type":"LineString","coordinates":[[80.1271,6.6312],[80.1104,6.6521]]},"properties":{"ord":4}},
{"type":"Feature","geometry":{"type":"LineString","coordinates":[[80.1437,6.6396],[80.1271,6.6312]]},"properties":{"ord":4}},
{"type":"Feature","geometry":{"type":"LineString","coordinates":[[80.1604,6.6312],[80.1562,6.6354]]},"properties":{"ord":4}},
{"type":"Feature","geometry":{"type":"LineString","coordinates":[[79.9896,6.6354],[79.9937,6.6271]]},"properties":{"ord":4}},
{"type":"Feature","geometry":{"type":"LineString","coordinates":[[80.0187,6.6312],[79.9937,6.6271]]},"properties":{"ord":5}},
{"type":"Feature","geometry":{"type":"LineString","coordinates":[[80.0646,6.6312],[80.0521,6.6271]]},"properties":{"ord":5}},
{"type":"Feature","geometry":{"type":"LineString","coordinates":[[80.0521,6.6271],[80.0396,6.6229],[80.0312,6.6312]]},"properties":{"ord":5}},
{"type":"Feature","geometry":{"type":"LineString","coordinates":[[80.1771,6.6229],[80.1604,6.6312]]},"properties":{"ord":4}},
{"type":"Feature","geometry":{"type":"LineString","coordinates":[[80.1896,6.6271],[80.1771,6.6229]]},"properties":{"ord":4}},
{"type":"Feature","geometry":{"type":"LineString","coordinates":[[79.9937,6.6271],[79.9729,6.6021]]},"properties":{"ord":5}},
{"type":"Feature","geometry":{"type":"LineString","coordinates":[[80.2146,6.5979],[80.2104,6.6062],[80.1896,6.6271]]},"properties":{"ord":4}},
{"type":"Feature","geometry":{"type":"LineString","coordinates":[[79.9729,6.6021],[79.9562,6.5854]]},"properties":{"ord":5}},
{"type":"Feature","geometry":{"type":"LineString","coordinates":[[81.4146,6.6771],[81.4396,6.6563]]},"properties":{"ord":4}},
{"type":"Feature","geometry":{"type":"LineString","coordinates":[[81.4396,6.6563],[81.4479,6.6521],[81.4687,6.6312]]},"properties":{"ord":4}},
{"type":"Feature","geometry":{"type":"LineString","coordinates":[[81.4687,6.6312],[81.4729,6.6271]]},"properties":{"ord":4}},
{"type":"Feature","geometry":{"type":"LineString","coordinates":[[81.5354,6.6104],[81.5521,6.6104]]},"properties":{"ord":4}},
{"type":"Feature","geometry":{"type":"LineString","coordinates":[[81.4729,6.6271],[81.4937,6.6062]]},"properties":{"ord":4}},
{"type":"Feature","geometry":{"type":"LineString","coordinates":[[81.4937,6.6062],[81.4979,6.6062]]},"properties":{"ord":4}},
{"type":"Feature","geometry":{"type":"LineString","coordinates":[[81.4979,6.6062],[81.5104,6.6187]]},"properties":{"ord":4}},
{"type":"Feature","geometry":{"type":"LineString","coordinates":[[81.5104,6.6187],[81.5271,6.6062]]},"properties":{"ord":4}},
{"type":"Feature","geometry":{"type":"LineString","coordinates":[[81.5271,6.6062],[81.5354,6.6104]]},"properties":{"ord":4}},
{"type":"Feature","geometry":{"type":"LineString","coordinates":[[81.5521,6.6104],[81.5604,6.6146],[81.5854,6.6146],[81.5896,6.6062]]},"properties":{"ord":4}},
{"type":"Feature","geometry":{"type":"LineString","coordinates":[[81.6479,6.5479],[81.6521,6.5479]]},"properties":{"ord":4}},
{"type":"Feature","geometry":{"type":"LineString","coordinates":[[81.5896,6.6062],[81.6021,6.5938],[81.6104,6.5771],[81.6312,6.5562],[81.6396,6.5438],[81.6479,6.5479]]},"properties":{"ord":4}},
{"type":"Feature","geometry":{"type":"LineString","coordinates":[[81.6521,6.5479],[81.6771,6.5229],[81.6812,6.5229]]},"properties":{"ord":4}},
{"type":"Feature","geometry":{"type":"LineString","coordinates":[[81.6812,6.5229],[81.7104,6.5146]]},"properties":{"ord":4}},
{"type":"Feature","geometry":{"type":"LineString","coordinates":[[80.0271,6.4271],[80.0062,6.4354],[79.9937,6.4271]]},"properties":{"ord":4}},
{"type":"Feature","geometry":{"type":"LineString","coordinates":[[80.0312,6.4229],[80.0271,6.4271]]},"properties":{"ord":4}},
{"type":"Feature","geometry":{"type":"LineString","coordinates":[[80.0479,6.4146],[80.0312,6.4229]]},"properties":{"ord":4}},
{"type":"Feature","geometry":{"type":"LineString","coordinates":[[80.0646,6.4062],[80.0479,6.4146]]},"properties":{"ord":4}},
{"type":"Feature","geometry":{"type":"LineString","coordinates":[[80.0771,6.3937],[80.0646,6.4062]]},"properties":{"ord":4}},
{"type":"Feature","geometry":{"type":"LineString","coordinates":[[80.0979,6.3937],[80.0854,6.4021],[80.0771,6.3937]]},"properties":{"ord":4}},
{"type":"Feature","geometry":{"type":"LineString","coordinates":[[80.1229,6.3729],[80.1229,6.3771],[80.0979,6.3937]]},"properties":{"ord":4}},
{"type":"Feature","geometry":{"type":"LineString","coordinates":[[80.1271,6.3687],[80.1229,6.3729]]},"properties":{"ord":4}},
{"type":"Feature","geometry":{"type":"LineString","coordinates":[[80.1312,6.3646],[80.1271,6.3687]]},"properties":{"ord":4}},
{"type":"Feature","geometry":{"type":"LineString","coordinates":[[80.1771,6.3604],[80.1562,6.3687],[80.1312,6.3646]]},"properties":{"ord":4}},
{"type":"Feature","geometry":{"type":"LineString","coordinates":[[80.2021,6.3604],[80.1937,6.3563],[80.1771,6.3604]]},"properties":{"ord":4}},
{"type":"Feature","geometry":{"type":"LineString","coordinates":[[81.4437,6.4146],[81.4604,6.4062]]},"properties":{"ord":4}},
{"type":"Feature","geometry":{"type":"LineString","coordinates":[[81.4604,6.4062],[81.4771,6.4021]]},"properties":{"ord":4}},
{"type":"Feature","geometry":{"type":"LineString","coordinates":[[81.4771,6.4021],[81.4812,6.3979]]},"properties":{"ord":4}},
{"type":"Feature","geometry":{"type":"LineString","coordinates":[[81.4812,6.3979],[81.4937,6.3854],[81.5062,6.3854],[81.5187,6.3729],[81.5187,6.3646]]},"properties":{"ord":4}},
{"type":"Feature","geometry":{"type":"LineString","coordinates":[[81.5187,6.3646],[81.5229,6.3604]]},"properties":{"ord":4}},
{"type":"Feature","geometry":{"type":"LineString","coordinates":[[81.1312,6.5229],[81.1354,6.5146]]},"properties":{"ord":4}},
{"type":"Feature","geometry":{"type":"LineString","coordinates":[[81.1354,6.5146],[81.1354,6.4937]]},"properties":{"ord":4}},
{"type":"Feature","geometry":{"type":"LineString","coordinates":[[81.1354,6.4937],[81.1396,6.4771],[81.1354,6.4604]]},"properties":{"ord":4}},
{"type":"Feature","geometry":{"type":"LineString","coordinates":[[81.1354,6.4604],[81.1396,6.4521],[81.1396,6.4312]]},"properties":{"ord":4}},
{"type":"Feature","geometry":{"type":"LineString","coordinates":[[81.1396,6.4312],[81.1396,6.4188]]},"properties":{"ord":4}},
{"type":"Feature","geometry":{"type":"LineString","coordinates":[[81.1396,6.4188],[81.1437,6.4062]]},"properties":{"ord":4}},
{"type":"Feature","geometry":{"type":"LineString","coordinates":[[81.1437,6.4062],[81.1479,6.3979],[81.1646,6.3937],[81.1771,6.4021],[81.1896,6.3979]]},"properties":{"ord":4}},
{"type":"Feature","geometry":{"type":"LineString","coordinates":[[81.1896,6.3979],[81.1937,6.3896]]},"properties":{"ord":4}},
{"type":"Feature","geometry":{"type":"LineString","coordinates":[[81.1937,6.3896],[81.1979,6.3771],[81.2146,6.3604]]},"properties":{"ord":4}},
{"type":"Feature","geometry":{"type":"LineString","coordinates":[[81.2146,6.3604],[81.2312,6.3396],[81.2479,6.3396]]},"properties":{"ord":4}},
{"type":"Feature","geometry":{"type":"LineString","coordinates":[[81.2479,6.3396],[81.2479,6.3188],[81.2521,6.3062],[81.2479,6.2896]]},"properties":{"ord":4}},
{"type":"Feature","geometry":{"type":"LineString","coordinates":[[81.2479,6.2896],[81.2562,6.2729],[81.2854,6.2438]]},"properties":{"ord":4}},
{"type":"Feature","geometry":{"type":"LineString","coordinates":[[81.2854,6.2438],[81.2979,6.2313]]},"properties":{"ord":4}},
{"type":"Feature","geometry":{"type":"LineString","coordinates":[[81.2979,6.2313],[81.3021,6.2104]]},"properties":{"ord":4}},
{"type":"Feature","geometry":{"type":"LineString","coordinates":[[81.3021,6.2104],[81.3021,6.1979]]},"properties":{"ord":4}},
{"type":"Feature","geometry":{"type":"LineString","coordinates":[[80.9187,6.6937],[80.9271,6.6854]]},"properties":{"ord":4}},
{"type":"Feature","geometry":{"type":"LineString","coordinates":[[80.9271,6.6854],[80.9187,6.6729]]},"properties":{"ord":4}},
{"type":"Feature","geometry":{"type":"LineString","coordinates":[[80.9187,6.6729],[80.9146,6.6687]]},"properties":{"ord":4}},
{"type":"Feature","geometry":{"type":"LineString","coordinates":[[80.7979,6.6812],[80.8104,6.6729],[80.8229,6.6771],[80.8437,6.6646]]},"properties":{"ord":4}},
{"type":"Feature","geometry":{"type":"LineString","coordinates":[[80.8437,6.6646],[80.8562,6.6563]]},"properties":{"ord":4}},
{"type":"Feature","geometry":{"type":"LineString","coordinates":[[80.9146,6.6687],[80.9021,6.6437]]},"properties":{"ord":4}},
{"type":"Feature","geometry":{"type":"LineString","coordinates":[[80.8562,6.6563],[80.8646,6.6646],[80.8854,6.6646],[80.8937,6.6396]]},"properties":{"ord":4}},
{"type":"Feature","geometry":{"type":"LineString","coordinates":[[80.9021,6.6437],[80.8937,6.6396]]},"properties":{"ord":4}},
{"type":"Feature","geometry":{"type":"LineString","coordinates":[[80.8937,6.6396],[80.8937,6.6354]]},"properties":{"ord":5}},
{"type":"Feature","geometry":{"type":"LineString","coordinates":[[80.8937,6.6354],[80.8854,6.6229]]},"properties":{"ord":5}},
{"type":"Feature","geometry":{"type":"LineString","coordinates":[[80.8854,6.6229],[80.8729,6.6062]]},"properties":{"ord":5}},
{"type":"Feature","geometry":{"type":"LineString","coordinates":[[80.8729,6.6062],[80.8687,6.5854]]},"properties":{"ord":5}},
{"type":"Feature","geometry":{"type":"LineString","coordinates":[[80.8687,6.5854],[80.8604,6.5646]]},"properties":{"ord":5}},
{"type":"Feature","geometry":{"type":"LineString","coordinates":[[80.8604,6.5646],[80.8646,6.5521]]},"properties":{"ord":5}},
{"type":"Feature","geometry":{"type":"LineString","coordinates":[[80.8646,6.5521],[80.8562,6.5354]]},"properties":{"ord":5}},
{"type":"Feature","geometry":{"type":"LineString","coordinates":[[80.8562,6.5354],[80.8354,6.5063]]},"properties":{"ord":5}},
{"type":"Feature","geometry":{"type":"LineString","coordinates":[[80.8354,6.5063],[80.8312,6.5021]]},"properties":{"ord":5}},
{"type":"Feature","geometry":{"type":"LineString","coordinates":[[80.8312,6.5021],[80.8312,6.4688]]},"properties":{"ord":5}},
{"type":"Feature","geometry":{"type":"LineString","coordinates":[[80.8312,6.4688],[80.8354,6.4563]]},"properties":{"ord":5}},
{"type":"Feature","geometry":{"type":"LineString","coordinates":[[80.8354,6.4563],[80.8396,6.4521]]},"properties":{"ord":5}},
{"type":"Feature","geometry":{"type":"LineString","coordinates":[[80.8396,6.4521],[80.8396,6.4229],[80.8437,6.4146]]},"properties":{"ord":5}},
{"type":"Feature","geometry":{"type":"LineString","coordinates":[[80.8437,6.4146],[80.8437,6.3979]]},"properties":{"ord":5}},
{"type":"Feature","geometry":{"type":"LineString","coordinates":[[80.8437,6.3979],[80.8562,6.3771]]},"properties":{"ord":5}},
{"type":"Feature","geometry":{"type":"LineString","coordinates":[[80.8562,6.3771],[80.8729,6.3563]]},"properties":{"ord":5}},
{"type":"Feature","geometry":{"type":"LineString","coordinates":[[80.8729,6.3563],[80.8771,6.3563]]},"properties":{"ord":5}},
{"type":"Feature","geometry":{"type":"LineString","coordinates":[[80.8771,6.3563],[80.8979,6.3521]]},"properties":{"ord":5}},
{"type":"Feature","geometry":{"type":"LineString","coordinates":[[80.8979,6.3521],[80.9104,6.3354],[80.9062,6.3229]]},"properties":{"ord":5}},
{"type":"Feature","geometry":{"type":"LineString","coordinates":[[80.9062,6.3229],[80.9187,6.3062]]},"properties":{"ord":5}},
{"type":"Feature","geometry":{"type":"LineString","coordinates":[[80.9187,6.3062],[80.9312,6.2896],[80.9312,6.2812]]},"properties":{"ord":5}},
{"type":"Feature","geometry":{"type":"LineString","coordinates":[[80.9312,6.2812],[80.9312,6.2771]]},"properties":{"ord":5}},
{"type":"Feature","geometry":{"type":"LineString","coordinates":[[80.9312,6.2771],[80.9437,6.2604]]},"properties":{"ord":5}},
{"type":"Feature","geometry":{"type":"LineString","coordinates":[[80.9437,6.2604],[80.9521,6.2438]]},"properties":{"ord":5}},
{"type":"Feature","geometry":{"type":"LineString","coordinates":[[80.9521,6.2438],[80.9437,6.2313]]},"properties":{"ord":5}},
{"type":"Feature","geometry":{"type":"LineString","coordinates":[[80.9437,6.2313],[80.9521,6.2188],[80.9521,6.1979],[80.9646,6.1938],[80.9812,6.1979]]},"properties":{"ord":5}},
{"type":"Feature","geometry":{"type":"LineString","coordinates":[[80.9812,6.1979],[81.0021,6.1854]]},"properties":{"ord":5}},
{"type":"Feature","geometry":{"type":"LineString","coordinates":[[81.0021,6.1854],[80.9896,6.1688]]},"properties":{"ord":5}},
{"type":"Feature","geometry":{"type":"LineString","coordinates":[[80.9896,6.1688],[80.9979,6.1521]]},"properties":{"ord":5}},
{"type":"Feature","geometry":{"type":"LineString","coordinates":[[80.9979,6.1521],[81.0104,6.1396],[81.0187,6.1438],[81.0312,6.1312],[81.0312,6.1188]]},"properties":{"ord":5}},
{"type":"Feature","geometry":{"type":"LineString","coordinates":[[81.0312,6.1188],[81.0229,6.1062]]},"properties":{"ord":5}},
{"type":"Feature","geometry":{"type":"LineString","coordinates":[[80.2187,6.1938],[80.2104,6.1938]]},"properties":{"ord":4}},
{"type":"Feature","geometry":{"type":"LineString","coordinates":[[80.2104,6.1938],[80.1937,6.1854]]},"properties":{"ord":4}},
{"type":"Feature","geometry":{"type":"LineString","coordinates":[[80.1937,6.1854],[80.1896,6.1813]]},"properties":{"ord":4}},
{"type":"Feature","geometry":{"type":"LineString","coordinates":[[80.1896,6.1813],[80.1937,6.1729]]},"properties":{"ord":4}},
{"type":"Feature","geometry":{"type":"LineString","coordinates":[[80.1937,6.1729],[80.1854,6.1646]]},"properties":{"ord":4}},
{"type":"Feature","geometry":{"type":"LineString","coordinates":[[80.1854,6.1646],[80.2021,6.1438]]},"properties":{"ord":4}},
{"type":"Feature","geometry":{"type":"LineString","coordinates":[[80.2021,6.1438],[80.1979,6.1396]]},"properties":{"ord":4}},
{"type":"Feature","geometry":{"type":"LineString","coordinates":[[80.1979,6.1396],[80.1854,6.1312]]},"properties":{"ord":4}},
{"type":"Feature","geometry":{"type":"LineString","coordinates":[[80.1854,6.1312],[80.1937,6.1062]]},"properties":{"ord":4}},
{"type":"Feature","geometry":{"type":"LineString","coordinates":[[80.1937,6.1062],[80.1896,6.1021]]},"properties":{"ord":4}},
{"type":"Feature","geometry":{"type":"LineString","coordinates":[[80.1896,6.1021],[80.1896,6.0937],[80.1771,6.0854],[80.1771,6.0771]]},"properties":{"ord":4}},
{"type":"Feature","geometry":{"type":"LineString","coordinates":[[80.1771,6.0771],[80.1729,6.0646]]},"properties":{"ord":4}},
{"type":"Feature","geometry":{"type":"LineString","coordinates":[[80.5271,6.0479],[80.5187,6.0229]]},"properties":{"ord":4}},
{"type":"Feature","geometry":{"type":"LineString","coordinates":[[80.5187,6.0229],[80.5437,6.0021],[80.5479,5.9938]]},"properties":{"ord":4}},
{"type":"Feature","geometry":{"type":"LineString","coordinates":[[80.5479,5.9938],[80.5521,5.9729]]},"properties":{"ord":4}},
{"type":"Feature","geometry":{"type":"LineString","coordinates":[[80.5521,5.9729],[80.5604,5.9521]]},"properties":{"ord":4}},
{"type":"Feature","geometry":{"type":"LineString","coordinates":[[80.5604,5.9521],[80.5562,5.9438]]},"properties":{"ord":4}}
]}