{"type":"FeatureCollection","features":[{"type":"Feature","properties":{"name":"Delta","segment":"hydro","firm":"Lotus Hydro Power PLC","ticker":"HPFL","capMw":1.6,"river":"Mahaweli Ganga"},"geometry":{"type":"Point","coordinates":[80.66337,7.12562]}},{"type":"Feature","properties":{"name":"Sanquhar","segment":"hydro","firm":"Lotus Hydro Power PLC","ticker":"HPFL","capMw":1.6,"river":"Mahaweli Ganga"},"geometry":{"type":"Point","coordinates":[80.59157,7.12181]}},{"type":"Feature","properties":{"name":"Stellenberg","segment":"hydro","firm":"Lotus Hydro Power PLC","ticker":"HPFL","capMw":1,"river":"Mahaweli Ganga"},"geometry":{"type":"Point","coordinates":[80.67901,7.11334]}},{"type":"Feature","properties":{"name":"Thebuwana","segment":"hydro","firm":"Lotus Hydro Power PLC","ticker":"HPFL","capMw":1,"river":"Kalu Ganga"},"geometry":{"type":"Point","coordinates":[80.36521,6.80994]}},{"type":"Feature","properties":{"name":"Agra Oya","segment":"hydro","firm":"Resus Energy PLC","ticker":"HPWR","capMw":2.6,"river":null},"geometry":{"type":"Point","coordinates":[80.68788,6.92674]}},{"type":"Feature","properties":{"name":"Giddawa","segment":"hydro","firm":"Resus Energy PLC","ticker":"HPWR","capMw":2,"river":null},"geometry":{"type":"Point","coordinates":[80.75892,7.30187]}},{"type":"Feature","properties":{"name":"Gomale Oya","segment":"hydro","firm":"Resus Energy PLC","ticker":"HPWR","capMw":1.4,"river":null},"geometry":{"type":"Point","coordinates":[80.41507,6.87575]}},{"type":"Feature","properties":{"name":"Karapalagama","segment":"hydro","firm":"Resus Energy PLC","ticker":"HPWR","capMw":2,"river":null},"geometry":{"type":"Point","coordinates":[80.86244,7.09581]}},{"type":"Feature","properties":{"name":"Moragaha Oya","segment":"hydro","firm":"Resus Energy PLC","ticker":"HPWR","capMw":1.5,"river":null},"geometry":{"type":"Point","coordinates":[80.714,7.361]}},{"type":"Feature","properties":{"name":"Ranwala Oya","segment":"hydro","firm":"Resus Energy PLC","ticker":"HPWR","capMw":0.7,"river":null},"geometry":{"type":"Point","coordinates":[80.41341,6.89114]}},{"type":"Feature","properties":{"name":"Upper Huluganga","segment":"hydro","firm":"Resus Energy PLC","ticker":"HPWR","capMw":1.9,"river":null},"geometry":{"type":"Point","coordinates":[80.73594,7.35993]}},{"type":"Feature","properties":{"name":"Upper Magalganga","segment":"hydro","firm":"Resus Energy PLC","ticker":"HPWR","capMw":2.4,"river":null},"geometry":{"type":"Point","coordinates":[80.44131,6.87284]}},{"type":"Feature","properties":{"name":"Resus Solar - Ampara","segment":"solar","firm":"Resus Energy PLC","ticker":"HPWR","capMw":5,"river":null},"geometry":{"type":"Point","coordinates":[81.83229,7.07376]}},{"type":"Feature","properties":{"name":"Resus Solar - Mahiyanganaya","segment":"solar","firm":"Resus Energy PLC","ticker":"HPWR","capMw":6,"river":null},"geometry":{"type":"Point","coordinates":[81.08114,7.2617]}},{"type":"Feature","properties":{"name":"Resus Solar - Siyambalanduwa (Plant 1)","segment":"solar","firm":"Resus Energy PLC","ticker":"HPWR","capMw":2,"river":null},"geometry":{"type":"Point","coordinates":[81.5012,6.7525]}},{"type":"Feature","properties":{"name":"Resus Solar - Siyambalanduwa (Plant 2)","segment":"solar","firm":"Resus Energy PLC","ticker":"HPWR","capMw":1,"river":null},"geometry":{"type":"Point","coordinates":[81.501,6.753]}},{"type":"Feature","properties":{"name":"Assupiniella","segment":"hydro","firm":"LVL Energy Fund PLC","ticker":"LVEF","capMw":4,"river":null},"geometry":{"type":"Point","coordinates":[80.45718,7.17759]}},{"type":"Feature","properties":{"name":"Bambarapana","segment":"hydro","firm":"LVL Energy Fund PLC","ticker":"LVEF","capMw":2.5,"river":null},"geometry":{"type":"Point","coordinates":[80.96642,6.96344]}},{"type":"Feature","properties":{"name":"Belihuloya","segment":"hydro","firm":"LVL Energy Fund PLC","ticker":"LVEF","capMw":2.5,"river":null},"geometry":{"type":"Point","coordinates":[80.77014,6.71669]}},{"type":"Feature","properties":{"name":"Campion","segment":"hydro","firm":"LVL Energy Fund PLC","ticker":"LVEF","capMw":1,"river":null},"geometry":{"type":"Point","coordinates":[80.70272,6.78157]}},{"type":"Feature","properties":{"name":"Kadawala","segment":"hydro","firm":"LVL Energy Fund PLC","ticker":"LVEF","capMw":4.85,"river":null},"geometry":{"type":"Point","coordinates":[80.52,6.94]}},{"type":"Feature","properties":{"name":"Lower Neluwa","segment":"hydro","firm":"LVL Energy Fund PLC","ticker":"LVEF","capMw":1.45,"river":null},"geometry":{"type":"Point","coordinates":[80.38151,6.39577]}},{"type":"Feature","properties":{"name":"Theberton","segment":"hydro","firm":"LVL Energy Fund PLC","ticker":"LVEF","capMw":1.3,"river":null},"geometry":{"type":"Point","coordinates":[80.50701,6.89755]}},{"type":"Feature","properties":{"name":"Maho Solar","segment":"solar","firm":"LVL Energy Fund PLC","ticker":"LVEF","capMw":3,"river":null},"geometry":{"type":"Point","coordinates":[80.23932,7.91967]}},{"type":"Feature","properties":{"name":"Mathugama Solar","segment":"solar","firm":"LVL Energy Fund PLC","ticker":"LVEF","capMw":1,"river":null},"geometry":{"type":"Point","coordinates":[80.09448,6.68942]}},{"type":"Feature","properties":{"name":"Pallekele Solar","segment":"solar","firm":"LVL Energy Fund PLC","ticker":"LVEF","capMw":2,"river":null},"geometry":{"type":"Point","coordinates":[80.75424,7.3263]}},{"type":"Feature","properties":{"name":"Manelwala","segment":"hydro","firm":"Panasian Power PLC","ticker":"PAP","capMw":2.4,"river":"Mahaweli Ganga"},"geometry":{"type":"Point","coordinates":[80.8671,7.11323]}},{"type":"Feature","properties":{"name":"Padiyapelella","segment":"hydro","firm":"Panasian Power PLC","ticker":"PAP","capMw":3.5,"river":"Mahaweli Ganga"},"geometry":{"type":"Point","coordinates":[80.80693,7.12065]}},{"type":"Feature","properties":{"name":"Rathganga","segment":"hydro","firm":"Panasian Power PLC","ticker":"PAP","capMw":3,"river":"Kalu Ganga"},"geometry":{"type":"Point","coordinates":[80.45815,6.74296]}},{"type":"Feature","properties":{"name":"Beliatta Ground Solar","segment":"solar","firm":"Panasian Power PLC","ticker":"PAP","capMw":1,"river":null},"geometry":{"type":"Point","coordinates":[80.70847,6.13019]}},{"type":"Feature","properties":{"name":"Boralesgamuwa Rooftop Solar","segment":"solar","firm":"Panasian Power PLC","ticker":"PAP","capMw":0.35,"river":null},"geometry":{"type":"Point","coordinates":[79.9017,6.84106]}},{"type":"Feature","properties":{"name":"FGR Maradankadawala Greenhouse Solar","segment":"solar","firm":"Panasian Power PLC","ticker":"PAP","capMw":1,"river":null},"geometry":{"type":"Point","coordinates":[80.5631,8.1271]}},{"type":"Feature","properties":{"name":"FGR Thirappane Greenhouse Solar","segment":"solar","firm":"Panasian Power PLC","ticker":"PAP","capMw":1,"river":null},"geometry":{"type":"Point","coordinates":[80.523,8.2157]}},{"type":"Feature","properties":{"name":"Kohuwala Rooftop Solar","segment":"solar","firm":"Panasian Power PLC","ticker":"PAP","capMw":0.3,"river":null},"geometry":{"type":"Point","coordinates":[79.88474,6.86705]}},{"type":"Feature","properties":{"name":"Kolonna Rooftop Solar","segment":"solar","firm":"Panasian Power PLC","ticker":"PAP","capMw":0.25,"river":null},"geometry":{"type":"Point","coordinates":[80.69182,6.40124]}},{"type":"Feature","properties":{"name":"Maho Ground Solar","segment":"solar","firm":"Panasian Power PLC","ticker":"PAP","capMw":1,"river":null},"geometry":{"type":"Point","coordinates":[80.27357,7.82391]}},{"type":"Feature","properties":{"name":"Mawathagama ECO Rooftop Solar","segment":"solar","firm":"Panasian Power PLC","ticker":"PAP","capMw":0.583,"river":null},"geometry":{"type":"Point","coordinates":[80.4464,7.433]}},{"type":"Feature","properties":{"name":"Mawathagama Foundation Rooftop Solar","segment":"solar","firm":"Panasian Power PLC","ticker":"PAP","capMw":0.4,"river":null},"geometry":{"type":"Point","coordinates":[80.4464,7.433]}},{"type":"Feature","properties":{"name":"Melsiripura Rooftop Solar","segment":"solar","firm":"Panasian Power PLC","ticker":"PAP","capMw":0.3,"river":null},"geometry":{"type":"Point","coordinates":[80.50931,7.64276]}},{"type":"Feature","properties":{"name":"Narammala Rooftop Solar","segment":"solar","firm":"Panasian Power PLC","ticker":"PAP","capMw":0.233,"river":null},"geometry":{"type":"Point","coordinates":[80.21438,7.43073]}},{"type":"Feature","properties":{"name":"Palapathwala Rooftop Solar","segment":"solar","firm":"Panasian Power PLC","ticker":"PAP","capMw":0.6,"river":null},"geometry":{"type":"Point","coordinates":[80.59848,7.71174]}},{"type":"Feature","properties":{"name":"Pannala Ground Solar","segment":"solar","firm":"Panasian Power PLC","ticker":"PAP","capMw":1,"river":null},"geometry":{"type":"Point","coordinates":[80.02411,7.32836]}},{"type":"Feature","properties":{"name":"RSD Maradankadawala Greenhouse Solar","segment":"solar","firm":"Panasian Power PLC","ticker":"PAP","capMw":1,"river":null},"geometry":{"type":"Point","coordinates":[80.5631,8.1271]}},{"type":"Feature","properties":{"name":"RSD Thirappane Greenhouse Solar","segment":"solar","firm":"Panasian Power PLC","ticker":"PAP","capMw":1,"river":null},"geometry":{"type":"Point","coordinates":[80.523,8.2157]}},{"type":"Feature","properties":{"name":"Uhumeeya Rooftop Solar","segment":"solar","firm":"Panasian Power PLC","ticker":"PAP","capMw":0.5,"river":null},"geometry":{"type":"Point","coordinates":[80.29494,7.46249]}},{"type":"Feature","properties":{"name":"Bambarabatuoya","segment":"hydro","firm":"Vidullanka PLC","ticker":"VLL","capMw":3.2,"river":"Kalu Ganga"},"geometry":{"type":"Point","coordinates":[80.50958,6.70154]}},{"type":"Feature","properties":{"name":"Batathota","segment":"hydro","firm":"Vidullanka PLC","ticker":"VLL","capMw":2.6,"river":"Kalu Ganga"},"geometry":{"type":"Point","coordinates":[80.37583,6.81329]}},{"type":"Feature","properties":{"name":"Ethamala Ella","segment":"hydro","firm":"Vidullanka PLC","ticker":"VLL","capMw":2,"river":"Nilwala Ganga"},"geometry":{"type":"Point","coordinates":[80.4979,6.22718]}},{"type":"Feature","properties":{"name":"Ganthuna","segment":"hydro","firm":"Vidullanka PLC","ticker":"VLL","capMw":1.2,"river":"Kelani Ganga"},"geometry":{"type":"Point","coordinates":[80.41885,7.13171]}},{"type":"Feature","properties":{"name":"Lower Kotmale Oya","segment":"hydro","firm":"Vidullanka PLC","ticker":"VLL","capMw":4.3,"river":"Mahaweli Ganga"},"geometry":{"type":"Point","coordinates":[80.65081,7.03346]}},{"type":"Feature","properties":{"name":"Madugeta","segment":"hydro","firm":"Vidullanka PLC","ticker":"VLL","capMw":2.5,"river":"Gin Ganga"},"geometry":{"type":"Point","coordinates":[80.40886,6.37155]}},{"type":"Feature","properties":{"name":"Rideepana","segment":"hydro","firm":"Vidullanka PLC","ticker":"VLL","capMw":1.75,"river":"Mahaweli Ganga"},"geometry":{"type":"Point","coordinates":[81.06428,7.00971]}},{"type":"Feature","properties":{"name":"Udawela","segment":"hydro","firm":"Vidullanka PLC","ticker":"VLL","capMw":1.4,"river":"Mahaweli Ganga"},"geometry":{"type":"Point","coordinates":[81.05606,6.9985]}},{"type":"Feature","properties":{"name":"Wembiyagoda","segment":"hydro","firm":"Vidullanka PLC","ticker":"VLL","capMw":1.3,"river":"Kalu Ganga"},"geometry":{"type":"Point","coordinates":[80.41326,6.51792]}},{"type":"Feature","properties":{"name":"DCL Rooftop Solar PP","segment":"solar","firm":"Vidullanka PLC","ticker":"VLL","capMw":0.515,"river":null},"geometry":{"type":"Point","coordinates":[79.905,6.71]}},{"type":"Feature","properties":{"name":"Emerald Rooftop Solar PP I II III","segment":"solar","firm":"Vidullanka PLC","ticker":"VLL","capMw":0.938,"river":null},"geometry":{"type":"Point","coordinates":[79.905,6.71]}},{"type":"Feature","properties":{"name":"Horana Solar PP","segment":"solar","firm":"Vidullanka PLC","ticker":"VLL","capMw":2.4,"river":null},"geometry":{"type":"Point","coordinates":[80.19,6.807]}},{"type":"Feature","properties":{"name":"Horana Solar PP Phase II","segment":"solar","firm":"Vidullanka PLC","ticker":"VLL","capMw":2,"river":null},"geometry":{"type":"Point","coordinates":[80.1034,6.8043]}},{"type":"Feature","properties":{"name":"Monaragala Solar PP","segment":"solar","firm":"Vidullanka PLC","ticker":"VLL","capMw":1,"river":null},"geometry":{"type":"Point","coordinates":[81.34784,6.9022]}},{"type":"Feature","properties":{"name":"TCL Rooftop Solar PP","segment":"solar","firm":"Vidullanka PLC","ticker":"VLL","capMw":0.24,"river":null},"geometry":{"type":"Point","coordinates":[79.90142,6.86309]}},{"type":"Feature","properties":{"name":"Vavunathivu Solar PP","segment":"solar","firm":"Vidullanka PLC","ticker":"VLL","capMw":10,"river":null},"geometry":{"type":"Point","coordinates":[81.64,7.71]}},{"type":"Feature","properties":{"name":"Vavunathivu Solar PP Phase II","segment":"solar","firm":"Vidullanka PLC","ticker":"VLL","capMw":10,"river":null},"geometry":{"type":"Point","coordinates":[81.64,7.71]}},{"type":"Feature","properties":{"name":"Denawaka Ganga","segment":"hydro","firm":"Vallibel Power Erathna PLC","ticker":"VPEL","capMw":7.2,"river":"Kalu Ganga"},"geometry":{"type":"Point","coordinates":[80.45216,6.70345]}},{"type":"Feature","properties":{"name":"Erathna","segment":"hydro","firm":"Vallibel Power Erathna PLC","ticker":"VPEL","capMw":9.9,"river":"Kalu Ganga"},"geometry":{"type":"Point","coordinates":[80.42649,6.83287]}},{"type":"Feature","properties":{"name":"Kiriwaneliya","segment":"hydro","firm":"Vallibel Power Erathna PLC","ticker":"VPEL","capMw":4.65,"river":"Kelani Ganga"},"geometry":{"type":"Point","coordinates":[80.52248,6.91084]}},{"type":"Feature","properties":{"name":"Dolahena Estate Ground Mounted Solar PV","segment":"solar","firm":"Vallibel Power Erathna PLC","ticker":"VPEL","capMw":10,"river":null},"geometry":{"type":"Point","coordinates":[80.02143,6.81344]}},{"type":"Feature","properties":{"name":"Dambulu Oya","segment":"hydro","firm":"WindForce PLC","ticker":"WIND","capMw":3.25,"river":null},"geometry":{"type":"Point","coordinates":[80.65241,7.81617]}},{"type":"Feature","properties":{"name":"Halathura Ganga","segment":"hydro","firm":"WindForce PLC","ticker":"WIND","capMw":1.3,"river":null},"geometry":{"type":"Point","coordinates":[80.21,6.62]}},{"type":"Feature","properties":{"name":"Kokawita","segment":"hydro","firm":"WindForce PLC","ticker":"WIND","capMw":1,"river":null},"geometry":{"type":"Point","coordinates":[80.36744,6.4969]}},{"type":"Feature","properties":{"name":"Sithagala","segment":"hydro","firm":"WindForce PLC","ticker":"WIND","capMw":0.8,"river":null},"geometry":{"type":"Point","coordinates":[80.36,6.92]}},{"type":"Feature","properties":{"name":"Kebitigollewa Solar Power","segment":"solar","firm":"WindForce PLC","ticker":"WIND","capMw":10,"river":null},"geometry":{"type":"Point","coordinates":[80.66983,8.64084]}},{"type":"Feature","properties":{"name":"Rividhanavi","segment":"solar","firm":"WindForce PLC","ticker":"WIND","capMw":100,"river":null},"geometry":{"type":"Point","coordinates":[81.55921,6.9064]}},{"type":"Feature","properties":{"name":"Sky Solar","segment":"solar","firm":"WindForce PLC","ticker":"WIND","capMw":2.1,"river":null},"geometry":{"type":"Point","coordinates":[80.66255,7.87718]}},{"type":"Feature","properties":{"name":"Solar One","segment":"solar","firm":"WindForce PLC","ticker":"WIND","capMw":10,"river":null},"geometry":{"type":"Point","coordinates":[81.24756,7.94721]}},{"type":"Feature","properties":{"name":"Solar Universe","segment":"solar","firm":"WindForce PLC","ticker":"WIND","capMw":10,"river":null},"geometry":{"type":"Point","coordinates":[81.55675,7.8381]}},{"type":"Feature","properties":{"name":"Sooryashakthi (Phase II)","segment":"solar","firm":"WindForce PLC","ticker":"WIND","capMw":10,"river":null},"geometry":{"type":"Point","coordinates":[81.64,7.71]}},{"type":"Feature","properties":{"name":"Sunny Clime","segment":"solar","firm":"WindForce PLC","ticker":"WIND","capMw":1,"river":null},"geometry":{"type":"Point","coordinates":[80.5001,8.7593]}},{"type":"Feature","properties":{"name":"Suryadhanavi","segment":"solar","firm":"WindForce PLC","ticker":"WIND","capMw":1.2,"river":null},"geometry":{"type":"Point","coordinates":[80.0245,6.84469]}},{"type":"Feature","properties":{"name":"Vydexa","segment":"solar","firm":"WindForce PLC","ticker":"WIND","capMw":10,"river":null},"geometry":{"type":"Point","coordinates":[80.5359,8.7654]}},{"type":"Feature","properties":{"name":"Beta Power","segment":"wind","firm":"WindForce PLC","ticker":"WIND","capMw":10,"river":null},"geometry":{"type":"Point","coordinates":[80.4061,9.3857]}},{"type":"Feature","properties":{"name":"Daily Life Renewable Energy","segment":"wind","firm":"WindForce PLC","ticker":"WIND","capMw":10,"river":null},"geometry":{"type":"Point","coordinates":[79.7759,7.9813]}},{"type":"Feature","properties":{"name":"Nirmalapura","segment":"wind","firm":"WindForce PLC","ticker":"WIND","capMw":10,"river":null},"geometry":{"type":"Point","coordinates":[79.7411,7.9543]}},{"type":"Feature","properties":{"name":"Powergen","segment":"wind","firm":"WindForce PLC","ticker":"WIND","capMw":10,"river":null},"geometry":{"type":"Point","coordinates":[79.7759,7.9813]}},{"type":"Feature","properties":{"name":"Seguwantivu","segment":"wind","firm":"WindForce PLC","ticker":"WIND","capMw":9.6,"river":null},"geometry":{"type":"Point","coordinates":[79.8034,8.0584]}},{"type":"Feature","properties":{"name":"Vidatamunai","segment":"wind","firm":"WindForce PLC","ticker":"WIND","capMw":9.6,"river":null},"geometry":{"type":"Point","coordinates":[79.8058,8.0567]}}]}